{"type":"FeatureCollection","features":[{"type":"Feature","properties":{"name":"Vienne"},"geometry":{"type":"LineString","coordinates":[[1.9802,45.7037],[1.9201,45.6955],[1.8936,45.6962],[1.871,45.7099],[1.8582,45.6994],[1.846,45.6939],[1.8394,45.6964],[1.8432,45.7099],[1.8308,45.7158],[1.7886,45.7242],[1.7367,45.7421],[1.7183,45.7459],[1.7161,45.7467],[1.7007,45.7545],[1.6892,45.762],[1.6811,45.7654],[1.6514,45.7652],[1.6087,45.7772],[1.5571,45.7829],[1.5252,45.7938],[1.4975,45.809],[1.4544,45.8443],[1.3975,45.9023],[1.3831,45.8949],[1.3338,45.88],[1.323,45.8716],[1.3135,45.8533],[1.2915,45.8415],[1.2473,45.8266],[1.2151,45.8041],[1.1983,45.7957],[1.1753,45.7924],[1.1535,45.7961],[1.1384,45.8056],[1.117,45.8341],[1.0868,45.8631],[1.0539,45.8756],[0.8805,45.8955],[0.7949,45.8819],[0.7507,45.8844],[0.6934,45.8956],[0.6528,45.9172],[0.6584,45.9508],[0.6557,45.9656],[0.6846,46.0688],[0.6875,46.0892],[0.6877,46.1085],[0.6846,46.1275],[0.6795,46.1445],[0.6719,46.1624],[0.6787,46.1624],[0.6777,46.1701],[0.6725,46.1912],[0.6719,46.1971],[0.6773,46.2056],[0.6841,46.2127],[0.6885,46.2205],[0.6856,46.2313],[0.6924,46.2313],[0.6868,46.2438],[0.688,46.2468],[0.6924,46.2518],[0.6886,46.257],[0.6877,46.2591],[0.6924,46.2661],[0.6856,46.2661],[0.6912,46.2842],[0.6894,46.3278],[0.7048,46.3636],[0.7048,46.3846],[0.6958,46.4296],[0.689,46.4368],[0.6803,46.4433],[0.6719,46.451],[0.6642,46.4617],[0.6455,46.5012],[0.6415,46.5068],[0.6387,46.5133],[0.6371,46.5255],[0.6382,46.5331],[0.6432,46.5518],[0.6441,46.5602],[0.6359,46.5718],[0.603,46.6013],[0.596,46.6123],[0.552,46.7084],[0.5441,46.7373],[0.5348,46.8377],[0.5379,46.8539],[0.5515,46.8748],[0.5546,46.8924],[0.56,46.9039],[0.584,46.9309],[0.5894,46.947],[0.5856,46.9649],[0.5706,46.9888],[0.5689,47.0053],[0.5546,47.0537],[0.5447,47.0775],[0.5181,47.0989],[0.4859,47.1148],[0.459,47.122],[0.3405,47.1363],[0.3218,47.1458],[0.3034,47.1481],[0.195,47.1766],[0.1584,47.1802],[0.127,47.1896],[0.0996,47.2029],[0.0754,47.2182]]}},{"type":"Feature","properties":{"name":"Durance"},"geometry":{"type":"LineString","coordinates":[[6.6812,44.9222],[6.6596,44.9116],[6.6215,44.8841],[6.5808,44.8404],[6.5751,44.8277],[6.5725,44.8099],[6.5745,44.7665],[6.5778,44.7483],[6.5986,44.7032],[6.603,44.681],[6.5933,44.657],[6.5432,44.6113],[6.5283,44.5922],[6.5049,44.5683],[6.4758,44.5579],[6.3999,44.5519],[6.3906,44.5493],[6.3652,44.5347],[6.3247,44.4936],[6.297,44.4768],[6.2587,44.4678],[6.0944,44.4736],[6.0735,44.4676],[6.032,44.4344],[6.0163,44.4257],[5.9817,44.4141],[5.9661,44.4057],[5.9558,44.3955],[5.9373,44.3624],[5.928,44.3536],[5.9177,44.3458],[5.9086,44.337],[5.9038,44.3254],[5.9065,44.3165],[5.9142,44.3125],[5.9196,44.306],[5.9162,44.2895],[5.9143,44.2685],[5.9226,44.2469],[5.9375,44.2298],[5.9553,44.2223],[5.9599,44.2095],[5.9651,44.1826],[5.9697,44.1696],[6.0042,44.1135],[6.0112,44.0965],[6.0098,44.0794],[5.9963,44.0598],[5.9404,44.014],[5.9238,43.9929],[5.9118,43.9691],[5.8869,43.8942],[5.8711,43.8629],[5.759,43.7362],[5.7356,43.7179],[5.7109,43.7061],[5.6445,43.6949],[5.6223,43.6807],[5.5825,43.666],[5.5309,43.6693],[5.4136,43.6952],[5.3952,43.7019],[5.3779,43.7112],[5.3473,43.7344],[5.3366,43.7398],[5.3249,43.7416],[5.3083,43.7421],[5.2546,43.7493],[5.1926,43.7491],[5.0872,43.7868],[5.0659,43.7985],[4.9685,43.8667],[4.9059,43.8955],[4.7725,43.9328],[4.7627,43.9322]]}},{"type":"Feature","properties":{"name":"Tarn"},"geometry":{"type":"LineString","coordinates":[[3.5852,44.2191],[3.5811,44.2464],[3.5839,44.2699],[3.5959,44.2964],[3.5979,44.3128],[3.59,44.3343],[3.5715,44.3588],[3.5635,44.3628],[3.5571,44.3729],[3.54,44.375],[3.5282,44.3746],[3.5146,44.3705],[3.506,44.3644],[3.4985,44.3565],[3.4898,44.3497],[3.4777,44.3469],[3.4673,44.3494],[3.4348,44.3662],[3.4211,44.3679],[3.4091,44.3655],[3.3128,44.3245],[3.2516,44.3231],[3.2393,44.3148],[3.2297,44.2524],[3.2251,44.2401],[3.2192,44.2314],[3.2119,44.2254],[3.2029,44.221],[3.1638,44.2083],[3.1237,44.1784],[3.1022,44.1409],[3.0767,44.1094],[3.0247,44.0979],[2.9714,44.0968],[2.9189,44.0888],[2.9163,44.0864],[2.9142,44.0821],[2.9109,44.0776],[2.9052,44.0749],[2.8835,44.076],[2.8415,44.0882],[2.8202,44.0875],[2.8144,44.0843],[2.8034,44.0743],[2.7978,44.0704],[2.7883,44.0672],[2.7686,44.0629],[2.7593,44.0591],[2.7477,44.0503],[2.7267,44.0286],[2.7151,44.0194],[2.6816,44.0096],[2.6094,44.0158],[2.5759,44.0109],[2.5545,43.9989],[2.516,43.9688],[2.495,43.9571],[2.4666,43.9506],[2.1157,43.9361],[2.0662,43.9261],[1.9865,43.9186],[1.9611,43.9132],[1.9067,43.8917],[1.8189,43.8746],[1.8088,43.8692],[1.7922,43.8538],[1.7861,43.8494],[1.7644,43.8387],[1.7272,43.8089],[1.7066,43.7973],[1.6755,43.7906],[1.6438,43.7924],[1.6117,43.801],[1.5803,43.8143],[1.5186,43.8512],[1.4707,43.8961],[1.4514,43.908],[1.3854,43.9235],[1.3661,43.9343],[1.3552,43.9482],[1.329,44.0113],[1.3269,44.0181],[1.324,44.0246],[1.3171,44.0339],[1.2471,44.1038],[1.2258,44.1155],[1.1992,44.1185],[1.1428,44.1075],[1.1235,44.107],[1.0855,44.1177],[1.0708,44.1174],[1.0581,44.1131],[1.0459,44.106],[1.0359,44.0965],[1.0291,44.0828]]}},{"type":"Feature","properties":{"name":"Marne"},"geometry":{"type":"LineString","coordinates":[[5.4077,47.8772],[5.3875,47.8773],[5.3638,47.8826],[5.3318,47.8985],[5.3234,47.9028],[5.2991,47.925],[5.2627,48.0045],[5.2422,48.0272],[5.1929,48.0578],[5.1792,48.0718],[5.1624,48.0945],[5.1569,48.1048],[5.1528,48.118],[5.1511,48.1365],[5.1599,48.1822],[5.1559,48.2043],[5.1394,48.2409],[5.1394,48.2651],[5.1477,48.2934],[5.1448,48.307],[5.1283,48.3162],[5.1326,48.3179],[5.1372,48.3216],[5.1418,48.3269],[5.1463,48.3336],[5.154,48.3482],[5.1599,48.3641],[5.1633,48.3793],[5.1633,48.3916],[5.153,48.4373],[5.1538,48.4429],[5.1614,48.4521],[5.1621,48.4564],[5.1563,48.4623],[5.1332,48.4812],[5.1133,48.5113],[5.0597,48.5627],[5.0422,48.5887],[5.0415,48.5937],[5.0441,48.6057],[5.0434,48.6096],[5.0363,48.6133],[5.0295,48.6124],[5.0225,48.6105],[5.0158,48.6114],[4.9921,48.6225],[4.9706,48.6289],[4.9483,48.6314],[4.9006,48.6313],[4.8374,48.6446],[4.7952,48.6458],[4.7114,48.6386],[4.669,48.6469],[4.6448,48.6584],[4.5842,48.7029],[4.5806,48.7103],[4.5742,48.7464],[4.5683,48.7567],[4.5601,48.7661],[4.5507,48.7741],[4.5407,48.7806],[4.5332,48.789],[4.5125,48.8284],[4.4939,48.8463],[4.4734,48.8616],[4.4638,48.8653],[4.4412,48.8702],[4.4338,48.8752],[4.4186,48.8956],[4.4108,48.9038],[4.4003,48.9124],[4.3687,48.9319],[4.3589,48.9407],[4.3401,48.9696],[4.3298,48.9779],[4.3118,48.9851],[4.249,48.9997],[4.1677,49.0394],[4.1366,49.0453],[4.0339,49.0467],[4.0197,49.0494],[4.0148,49.0549],[4.0124,49.062],[4.0051,49.0692],[3.9949,49.0727],[3.9596,49.0758],[3.8945,49.0886],[3.8062,49.0826],[3.7568,49.0903],[3.5407,49.0889],[3.5138,49.0811],[3.4636,49.0555],[3.436,49.0489],[3.4138,49.0474],[3.4032,49.045],[3.3935,49.04],[3.3892,49.035],[3.3838,49.0214],[3.3801,49.0156],[3.3733,49.0101],[3.3462,48.9958],[3.3298,48.9901],[3.28,48.9815],[3.2634,48.9779],[3.2476,48.9776],[3.2322,48.9804],[3.1987,48.9921],[3.186,48.9932],[3.1751,48.9886],[3.1436,48.9661],[3.1253,48.9588],[3.1057,48.9553],[3.0383,48.9564],[3.0138,48.961],[3.0039,48.9699],[3.0153,48.9772],[3.0353,48.9811],[3.0473,48.9897],[3.0347,49.0109],[3.0244,49.0165],[3.0176,49.0122],[3.0114,49.0042],[3.0033,48.9991],[2.9924,48.9986],[2.9567,49.0026],[2.9526,49.004],[2.948,49.0029],[2.9401,48.9963],[2.9308,48.9838],[2.9356,48.9796],[2.9435,48.9755],[2.9436,48.9634],[2.9286,48.9464],[2.9086,48.9438],[2.8884,48.9467],[2.8728,48.946],[2.8648,48.9374],[2.8523,48.9122],[2.8445,48.9056],[2.8294,48.9064],[2.8205,48.9149],[2.8085,48.9383],[2.7959,48.9433],[2.7781,48.9383],[2.7573,48.9298],[2.7217,48.9204],[2.7236,48.9149],[2.7395,48.9057],[2.7498,48.9027],[2.7626,48.902],[2.768,48.899],[2.7565,48.8885],[2.7353,48.8806],[2.6371,48.8726],[2.5727,48.8792],[2.563,48.8789],[2.5536,48.8774],[2.5456,48.8736],[2.5375,48.8647],[2.5254,48.845],[2.5139,48.8366],[2.492,48.8328],[2.4824,48.8292],[2.4826,48.8223],[2.4932,48.8175],[2.5085,48.8134],[2.52,48.8072],[2.52,48.7955],[2.5086,48.7869],[2.4944,48.7888],[2.4806,48.7965],[2.4567,48.814],[2.4416,48.8179],[2.4255,48.8182],[2.4092,48.8161]]}},{"type":"Feature","properties":{"name":"Seine"},"geometry":{"type":"LineString","coordinates":[[4.7127,47.5126],[4.7041,47.527],[4.7009,47.541],[4.7048,47.5545],[4.7053,47.5718],[4.7077,47.5779],[4.7045,47.5853],[4.6974,47.5916],[4.6904,47.5997],[4.6872,47.6126],[4.687,47.6358],[4.6853,47.6444],[4.6736,47.6786],[4.6675,47.6844],[4.653,47.6912],[4.6231,47.6976],[4.6104,47.7033],[4.6052,47.7147],[4.5996,47.741],[4.5852,47.763],[4.5652,47.7806],[4.5431,47.7936],[4.5466,47.8059],[4.5636,47.8345],[4.5705,47.8526],[4.5762,47.8626],[4.5847,47.8692],[4.5662,47.8689],[4.553,47.8754],[4.5437,47.8858],[4.5369,47.8966],[4.5429,47.8994],[4.5457,47.9026],[4.5476,47.9062],[4.5505,47.9102],[4.5361,47.9199],[4.5059,47.9581],[4.5055,47.9669],[4.4917,47.9858],[4.4754,48.0037],[4.4675,48.0093],[4.4535,48.027],[4.3926,48.062],[4.3787,48.0921],[4.3787,48.1129],[4.3759,48.1231],[4.366,48.1287],[4.3447,48.1362],[4.3356,48.1408],[4.3305,48.1452],[4.3245,48.1485],[4.3135,48.1498],[4.2844,48.1485],[4.2756,48.1498],[4.1828,48.2126],[4.1596,48.2119],[4.1528,48.2261],[4.145,48.2391],[4.1343,48.2502],[4.1255,48.2591],[4.1118,48.2752],[4.0845,48.3249],[4.0671,48.3354],[4.0434,48.3429],[4.0053,48.3758],[3.9773,48.3919],[3.9404,48.4446],[3.9133,48.4724],[3.9037,48.4871],[3.9058,48.4993],[3.8728,48.5217],[3.8311,48.5288],[3.7873,48.5313],[3.7481,48.5402],[3.7433,48.5445],[3.731,48.5607],[3.7266,48.5629],[3.7209,48.5668],[3.716,48.5687],[3.7139,48.5645],[3.7118,48.5621],[3.707,48.5587],[3.7012,48.5558],[3.697,48.5545],[3.6765,48.5532],[3.655,48.5488],[3.6357,48.5413],[3.6213,48.5303],[3.6082,48.523],[3.5889,48.5205],[3.5501,48.5198],[3.5439,48.522],[3.537,48.5262],[3.5313,48.5263],[3.529,48.5167],[3.5248,48.5122],[3.5049,48.5014],[3.4985,48.4993],[3.4889,48.4984],[3.476,48.494],[3.4675,48.4925],[3.4616,48.4927],[3.456,48.4937],[3.4492,48.494],[3.4402,48.4925],[3.4392,48.4899],[3.4191,48.4726],[3.4098,48.4693],[3.402,48.4694],[3.396,48.4676],[3.3923,48.4583],[3.3849,48.4583],[3.3708,48.4658],[3.3503,48.4669],[3.3316,48.4611],[3.3235,48.4481],[3.3146,48.4393],[3.2939,48.4317],[3.2546,48.4241],[3.2102,48.4334],[3.1873,48.4357],[3.169,48.4279],[3.1545,48.418],[3.1132,48.4012],[3.0969,48.3968],[3.0747,48.3956],[3.0122,48.4037],[2.863,48.3816],[2.8511,48.3869],[2.8469,48.3913],[2.8268,48.4017],[2.8201,48.4037],[2.8151,48.4027],[2.8057,48.398],[2.7997,48.3968],[2.7959,48.3998],[2.7964,48.4066],[2.7978,48.4135],[2.7966,48.4173],[2.783,48.4187],[2.7686,48.4178],[2.7559,48.4183],[2.7475,48.4241],[2.7458,48.4371],[2.7527,48.4475],[2.7624,48.4564],[2.768,48.4652],[2.7617,48.484],[2.7393,48.4877],[2.7109,48.4871],[2.6867,48.4925],[2.678,48.5021],[2.677,48.5122],[2.6774,48.5229],[2.6718,48.534],[2.6603,48.5404],[2.6497,48.5377],[2.6314,48.5266],[2.6143,48.5232],[2.605,48.5244],[2.583,48.534],[2.5471,48.5424],[2.5352,48.5471],[2.5352,48.5545],[2.5484,48.5611],[2.5441,48.5667],[2.5154,48.575],[2.4917,48.5759],[2.4885,48.5828],[2.488,48.6054],[2.4758,48.6295],[2.4473,48.6523],[2.3919,48.6849],[2.426,48.7149],[2.4409,48.7315],[2.4431,48.7429],[2.4277,48.7568],[2.422,48.7637],[2.4197,48.7708],[2.4203,48.7918],[2.4182,48.7967],[2.4123,48.8078],[2.3909,48.8338],[2.3588,48.8554],[2.3225,48.8668],[2.2888,48.8624],[2.2548,48.8385],[2.2354,48.8338],[2.2268,48.8528],[2.2332,48.8691],[2.2485,48.8863],[2.2666,48.9012],[2.282,48.9108],[2.3191,48.9234],[2.3273,48.9307],[2.3298,48.9483],[2.3189,48.9581],[2.2947,48.9567],[2.2546,48.9449],[2.2293,48.9283],[2.2139,48.9208],[2.1963,48.9177],[2.1838,48.9129],[2.1629,48.8905],[2.1516,48.8829],[2.1249,48.8862],[2.1218,48.9107],[2.1362,48.9385],[2.1665,48.9541],[2.1723,48.96],[2.177,48.9678],[2.179,48.9757],[2.1774,48.985],[2.1731,48.9886],[2.1667,48.9901],[2.1453,48.9972],[2.0933,49.0002],[2.0728,48.9952],[2.061,48.983],[2.0418,48.9518],[2.0244,48.9428],[2.0083,48.9466],[2.0003,48.9598],[2.0077,48.9791],[1.99,49.0014],[1.978,49.0095],[1.9599,49.0139],[1.9411,49.0136],[1.8139,48.9813],[1.7988,48.9793],[1.7647,48.9791],[1.7511,48.9822],[1.7339,48.9901],[1.7192,49.0001],[1.7128,49.0101],[1.704,49.0135],[1.6479,49.0139],[1.6193,49.0202],[1.6369,49.0355],[1.6991,49.069],[1.6747,49.0764],[1.6535,49.0782],[1.6331,49.0736],[1.5891,49.0475],[1.5776,49.0428],[1.562,49.0411],[1.547,49.0464],[1.5348,49.0579],[1.5252,49.0694],[1.5138,49.0775],[1.5097,49.091],[1.5073,49.0958],[1.502,49.0978],[1.4855,49.1005],[1.4794,49.1026],[1.457,49.1262],[1.449,49.13],[1.439,49.133],[1.4321,49.1403],[1.426,49.1494],[1.4186,49.1572],[1.3871,49.1743],[1.3845,49.1783],[1.3588,49.1833],[1.3464,49.1975],[1.3506,49.2124],[1.3743,49.2193],[1.3899,49.2264],[1.3897,49.2412],[1.3755,49.2534],[1.3498,49.2534],[1.3334,49.2446],[1.2956,49.218],[1.2786,49.2125],[1.2682,49.2136],[1.2439,49.2193],[1.2328,49.2235],[1.2353,49.2329],[1.2428,49.2423],[1.2473,49.2466],[1.2538,49.2564],[1.2587,49.2604],[1.2612,49.2658],[1.2602,49.2917],[1.2587,49.3005],[1.2539,49.3061],[1.0886,49.3146],[1.0347,49.2974],[1.0063,49.2945],[0.9934,49.3081],[1.0033,49.3194],[1.0264,49.328],[1.0527,49.3334],[1.0925,49.3369],[1.1086,49.3429],[1.1193,49.3553],[1.1238,49.3763],[1.1148,49.4119],[1.0898,49.44],[1.0562,49.45],[1.0214,49.4309],[1.0007,49.372],[0.99,49.3627],[0.9523,49.3562],[0.933,49.3575],[0.9177,49.3701],[0.9136,49.3887],[0.9192,49.4077],[0.9277,49.4274],[0.9321,49.4486],[0.9291,49.4728],[0.9201,49.4862],[0.905,49.4901],[0.874,49.4836],[0.8666,49.481],[0.8609,49.4759],[0.8562,49.4657],[0.8572,49.4584],[0.8666,49.4309],[0.8723,49.4256],[0.8679,49.4141],[0.8604,49.4035],[0.8562,49.4005],[0.851,49.3944],[0.8393,49.399],[0.8115,49.42],[0.809,49.4262],[0.8085,49.4383],[0.8202,49.4558],[0.8249,49.4674],[0.8193,49.4725],[0.8139,49.4747],[0.8,49.4841],[0.7803,49.4889],[0.778,49.4957],[0.7782,49.5046],[0.7743,49.5135],[0.7597,49.5221],[0.7399,49.5261],[0.6955,49.5272],[0.6812,49.5196],[0.6716,49.5019],[0.6584,49.4657],[0.6476,49.4531],[0.6338,49.4446],[0.6159,49.4399],[0.5925,49.4383],[0.5729,49.444],[0.5402,49.4732],[0.5204,49.4862],[0.5081,49.4921],[0.5019,49.4936],[0.4932,49.4936]]}},{"type":"Feature","properties":{"name":"Rhin"},"geometry":{"type":"LineString","coordinates":[[8.8811,47.6564],[8.8521,47.671],[8.8157,47.6843],[8.7765,47.6937],[8.6398,47.6962],[8.6315,47.6905],[8.6245,47.6815],[8.6074,47.6707],[8.6174,47.6663],[8.6245,47.659],[8.6248,47.6506],[8.6143,47.6427],[8.6067,47.6566],[8.6025,47.6475],[8.5999,47.6126],[8.5944,47.6005],[8.568,47.5755],[8.5596,47.5608],[8.5393,47.5687],[8.523,47.5777],[8.5051,47.585],[8.4802,47.5881],[8.4175,47.5811],[8.3535,47.5812],[8.3157,47.5881],[8.3058,47.5925],[8.2988,47.6021],[8.2934,47.6117],[8.2881,47.616],[8.2765,47.6169],[8.2505,47.6223],[8.2324,47.6221],[8.1786,47.616],[8.1733,47.6138],[8.1684,47.6089],[8.1616,47.604],[8.1432,47.6004],[8.1216,47.5924],[8.1133,47.5881],[8.105,47.5815],[8.1008,47.5764],[8.0964,47.5721],[8.0867,47.5677],[8.0417,47.5608],[7.9116,47.5608],[7.9089,47.565],[7.907,47.5745],[7.9037,47.5838],[7.8976,47.5881],[7.8332,47.5908],[7.8191,47.5955],[7.801,47.5763],[7.7849,47.5634],[7.7661,47.5562],[7.6829,47.5445],[7.6609,47.5465],[7.6091,47.565],[7.5886,47.5677],[7.5835,47.5729],[7.5854,47.5843],[7.5896,47.595],[7.592,47.5987],[7.5898,47.6082],[7.5846,47.6135],[7.5781,47.6172],[7.572,47.6223],[7.5497,47.6527],[7.5361,47.6655],[7.5213,47.6707],[7.5173,47.6753],[7.5141,47.6861],[7.5112,47.7076],[7.5148,47.7136],[7.5315,47.7255],[7.5374,47.7321],[7.5378,47.7484],[7.5254,47.7834],[7.5281,47.7973],[7.5424,47.8297],[7.5479,47.8345],[7.5615,47.8395],[7.5636,47.8507],[7.5585,47.8692],[7.5586,47.8737],[7.5579,47.8763],[7.5573,47.8788],[7.5585,47.8829],[7.5615,47.8874],[7.5679,47.8916],[7.572,47.8966],[7.5784,47.9066],[7.5801,47.9111],[7.5789,47.9273],[7.5845,47.9407],[7.6111,47.9597],[7.6206,47.9717],[7.6184,48.0029],[7.5752,48.0539],[7.572,48.0952],[7.5783,48.1148],[7.5851,48.13],[7.5923,48.1389],[7.5991,48.145],[7.6043,48.1529],[7.6064,48.1672],[7.6128,48.1795],[7.676,48.2387],[7.6865,48.2532],[7.6929,48.2701],[7.695,48.2905],[7.7019,48.3115],[7.718,48.3203],[7.7363,48.3269],[7.7503,48.3416],[7.7515,48.3556],[7.7463,48.369],[7.7398,48.3817],[7.7366,48.3937],[7.7378,48.4068],[7.7451,48.4333],[7.7503,48.4446],[7.7571,48.4542],[7.7637,48.4606],[7.7688,48.4703],[7.7708,48.4893],[7.7759,48.4984],[7.7879,48.5065],[7.8129,48.5198],[7.8129,48.5266],[7.8012,48.5478],[7.8013,48.5826],[7.8097,48.6153],[7.8518,48.659],[7.8635,48.6644],[7.8801,48.6679],[7.8954,48.6768],[7.9228,48.6986],[7.9346,48.7036],[7.948,48.7122],[7.9587,48.7216],[7.9631,48.7296],[7.9644,48.7486],[7.9697,48.7575],[7.981,48.76],[8.009,48.7604],[8.0168,48.762],[8.0224,48.7653],[8.0246,48.7708],[8.0268,48.7803],[8.0314,48.7856],[8.0361,48.7885],[8.0383,48.791],[8.047,48.7913],[8.0837,48.8044],[8.0898,48.8078],[8.1022,48.8216],[8.1475,48.904],[8.1787,48.9429],[8.1997,48.9588],[8.23,48.9654]]}},{"type":"Feature","properties":{"name":"Rhin"},"geometry":{"type":"LineString","coordinates":[[8.23,48.9654],[8.2624,48.9883],[8.2835,49.0098],[8.3569,49.1094],[8.3613,49.1195],[8.3805,49.2147],[8.3871,49.2319],[8.398,49.2391],[8.4107,49.2435],[8.4797,49.2968],[8.4833,49.3094],[8.4597,49.3149],[8.4617,49.3233],[8.4976,49.3763],[8.4975,49.3863],[8.491,49.4029],[8.49,49.4111],[8.4919,49.413],[8.5014,49.429],[8.5044,49.4309],[8.4937,49.4425],[8.4777,49.4462],[8.4594,49.4476],[8.4423,49.452],[8.4423,49.4588],[8.4634,49.4657],[8.4634,49.4725],[8.45,49.4911],[8.4275,49.534],[8.4082,49.555],[8.4167,49.5793],[8.3998,49.6102],[8.3753,49.6409],[8.3604,49.6643],[8.3621,49.6907],[8.3789,49.7103],[8.4063,49.7223],[8.4389,49.7264],[8.4606,49.7436],[8.4736,49.7573],[8.4765,49.7674],[8.4624,49.7709],[8.4421,49.7679],[8.4236,49.7672],[8.4157,49.7776],[8.4136,49.7845],[8.4085,49.7925],[8.3897,49.8151],[8.3862,49.8237],[8.384,49.8321],[8.3801,49.8424],[8.3703,49.8565],[8.3474,49.8784],[8.3399,49.8909],[8.355,49.9255],[8.3352,49.9595],[8.228,50.038],[8.2128,50.0443],[8.2006,50.0462],[8.1736,50.0457],[8.0483,50.0183],[8.0095,49.9991],[7.9617,49.983],[7.9185,49.9737],[7.8779,49.9728],[7.8601,49.9899],[7.8572,50.0025],[7.8496,50.0106],[7.7849,50.0484],[7.7651,50.0637],[7.7571,50.0861],[7.7524,50.093],[7.7302,50.1133],[7.7229,50.1236],[7.7243,50.1446],[7.7199,50.1584],[7.7061,50.1646],[7.693,50.1669],[7.6513,50.1788],[7.643,50.1847],[7.6243,50.2139],[7.613,50.226],[7.5881,50.2409],[7.5793,50.2499],[7.5886,50.254],[7.6218,50.2539],[7.6365,50.2557],[7.6479,50.2608],[7.6479,50.2676],[7.6159,50.2869],[7.601,50.3005],[7.592,50.3155],[7.5912,50.3322],[7.5972,50.348],[7.606,50.3644],[7.613,50.3837],[7.5808,50.4112],[7.5436,50.4175],[7.5034,50.4175],[7.4628,50.4253],[7.3984,50.4498],[7.3872,50.4492],[7.3325,50.4868],[7.2693,50.5668],[7.2431,50.583],[7.2233,50.5892],[7.2133,50.5958],[7.2095,50.6087],[7.209,50.6338],[7.2055,50.6511],[7.1965,50.6696],[7.1853,50.6866],[7.175,50.699],[7.1591,50.7101],[7.121,50.7287],[7.106,50.7399],[7.0886,50.7637],[7.082,50.7673],[7.0712,50.7695],[7.0434,50.7804],[7.0378,50.7847],[7.0281,50.8055],[7.0066,50.8199],[6.9854,50.8305],[6.9756,50.8399],[6.9863,50.8554],[7.0356,50.8749],[7.0514,50.8908],[6.9856,50.9017],[6.9756,50.9085],[6.9736,50.9184],[6.9646,50.934],[6.9627,50.9427],[6.9663,50.9528],[6.9839,50.9624],[6.9893,50.9727],[6.9863,50.9802],[6.9775,50.9856],[6.968,50.99],[6.9627,50.9945],[6.9627,51.004],[6.9687,51.0242],[6.9661,51.0279],[6.9506,51.0332],[6.8943,51.0689],[6.86,51.0728],[6.8528,51.0764],[6.8513,51.0868],[6.8591,51.093],[6.8689,51.0968],[6.8738,51.1003],[6.8781,51.1139],[6.8757,51.1207],[6.8494,51.1275],[6.8479,51.1365],[6.8528,51.1515],[6.8457,51.1597],[6.8434,51.1608],[6.8389,51.159],[6.8255,51.1583],[6.811,51.1512],[6.8022,51.1511],[6.7981,51.1614],[6.7931,51.1835],[6.7797,51.1852],[6.7598,51.1813],[6.7361,51.1862],[6.728,51.1965],[6.7234,51.2123],[6.7243,51.227],[6.7329,51.2334],[6.7409,51.2313],[6.7495,51.2277],[6.7583,51.2261],[6.7671,51.2303],[6.7703,51.2376],[6.7661,51.2426],[6.7598,51.2468],[6.7565,51.2511],[6.7454,51.2564],[6.7224,51.2622],[6.7039,51.2709],[6.7053,51.2856],[6.7248,51.3029],[6.7288,51.3106],[6.7299,51.3262],[6.7114,51.3371],[6.676,51.3476],[6.6537,51.3601],[6.6746,51.3775],[6.6909,51.3804],[6.709,51.3809],[6.725,51.3829],[6.7361,51.3911],[6.7393,51.4068],[6.7324,51.4199],[6.7088,51.4395],[6.7088,51.4457],[6.7173,51.4534],[6.7206,51.4626],[6.717,51.4703],[6.7053,51.4737],[6.6889,51.4754],[6.6848,51.48],[6.6885,51.4866],[6.6951,51.4941],[6.7048,51.4999],[6.7149,51.5025],[6.7192,51.5069],[6.7122,51.5183],[6.7026,51.5257],[6.6923,51.5314],[6.6823,51.5383],[6.6746,51.5494],[6.6857,51.565],[6.6559,51.572],[6.5921,51.5767],[6.5921,51.5828],[6.594,51.5942]]}},{"type":"Feature","properties":{"name":"Rhône"},"geometry":{"type":"LineString","coordinates":[[8.3786,46.5788],[8.3692,46.5645],[8.3567,46.5564],[8.3482,46.5435],[8.3255,46.5272],[8.2927,46.5087],[8.2612,46.4888],[8.2505,46.4822],[8.1065,46.3935],[8.0383,46.3625],[8.0291,46.3491],[8.0075,46.3381],[7.9631,46.3247],[7.9243,46.3189],[7.7986,46.3247],[7.6267,46.3314],[7.6043,46.3272],[7.5679,46.3089],[7.4765,46.2905],[7.4296,46.2613],[7.3913,46.2539],[7.3616,46.2373],[7.1953,46.1813],[7.1021,46.1321],[7.0718,46.1282],[7.063,46.134],[7.0517,46.1454],[7.0419,46.1577],[7.0378,46.1661],[7.0369,46.1869],[7.0334,46.2001],[7.0259,46.2099],[7.0034,46.2308],[6.94,46.3075],[6.9353,46.3166],[6.9309,46.3343],[6.9202,46.3402],[6.9067,46.3421],[6.8943,46.348],[6.8906,46.3554],[6.8918,46.3629],[6.8942,46.3696],[6.8943,46.3747],[6.888,46.3832],[6.8731,46.3954],[6.8664,46.4026]]}},{"type":"Feature","properties":{"name":"Rhône"},"geometry":{"type":"LineString","coordinates":[[6.1333,46.2046],[6.1223,46.2053],[6.1086,46.2076],[6.0986,46.2108],[6.0934,46.2119],[6.0922,46.213],[6.082,46.211],[6.072,46.2087],[6.0618,46.2075],[6.0508,46.2046],[6.02,46.1835],[6.0017,46.1756],[5.9677,46.1392],[5.9546,46.1282],[5.9448,46.1271],[5.9234,46.1296],[5.9137,46.1282],[5.9055,46.1226],[5.893,46.1059],[5.8862,46.0993],[5.8716,46.0933],[5.8637,46.0972],[5.8569,46.105],[5.846,46.111],[5.8252,46.0953],[5.8242,46.0502],[5.8391,45.9706],[5.8406,45.9329],[5.832,45.8982],[5.7996,45.8319],[5.792,45.8111],[5.7888,45.7969],[5.7754,45.7955],[5.7583,45.7955],[5.7359,45.7925],[5.7205,45.7774],[5.708,45.7571],[5.7087,45.7341],[5.7134,45.7132],[5.7129,45.7001],[5.6941,45.6871],[5.6606,45.657],[5.6409,45.6458],[5.6199,45.6437],[5.6005,45.6556],[5.5659,45.7014],[5.547,45.7195],[5.4777,45.7641],[5.4502,45.793],[5.433,45.8311],[5.4343,45.832],[5.4375,45.8328],[5.439,45.8337],[5.435,45.8392],[5.4302,45.8443],[5.3849,45.8739],[5.3691,45.88],[5.362,45.8792],[5.3571,45.8759],[5.3471,45.8739],[5.3335,45.868],[5.3188,45.854],[5.2729,45.7998],[5.2573,45.7897],[5.2392,45.7857],[5.2199,45.7888],[5.1911,45.8029],[5.1669,45.809],[5.1338,45.8227],[5.1184,45.8266],[5.1025,45.8262],[5.0674,45.8207],[5.0503,45.8198],[4.9922,45.8266],[4.9756,45.8246],[4.947,45.8156],[4.9169,45.8113],[4.8774,45.7992],[4.8652,45.7924],[4.8615,45.7783],[4.8611,45.7602],[4.856,45.7499],[4.8381,45.7589],[4.8306,45.7524],[4.8244,45.7447],[4.8437,45.7174],[4.8405,45.6832],[4.8232,45.6481],[4.7998,45.618],[4.8024,45.593],[4.8393,45.5729],[4.87,45.5497],[4.8547,45.515],[4.7864,45.4731],[4.76,45.4444],[4.7554,45.402],[4.7734,45.3566],[4.7759,45.3372],[4.7835,45.3249],[4.799,45.3134],[4.8115,45.2993],[4.8107,45.2791],[4.8169,45.2791],[4.8125,45.2602],[4.8115,45.2287],[4.8141,45.1974],[4.8273,45.1579],[4.8224,45.1328],[4.8228,45.1112],[4.8447,45.101],[4.8411,45.0883],[4.8459,45.0808],[4.8534,45.0745],[4.8584,45.0656],[4.8586,45.0538],[4.8525,45.0333],[4.851,45.0216],[4.8574,45.0023],[4.8859,44.9667],[4.8926,44.9495],[4.8886,44.9322],[4.8686,44.8848],[4.8618,44.8751],[4.8581,44.8711],[4.8359,44.8541],[4.8306,44.8509],[4.8283,44.837],[4.8223,44.8308],[4.8136,44.8269],[4.8032,44.8205],[4.7883,44.8076],[4.7776,44.7954],[4.7713,44.7794],[4.7691,44.7547],[4.773,44.7415],[4.7912,44.7128],[4.7964,44.6964],[4.7895,44.6585],[4.7666,44.6315],[4.74,44.6063],[4.7214,44.5734],[4.7034,44.4747],[4.6996,44.4655],[4.677,44.4372],[4.6721,44.4285],[4.6703,44.4209],[4.6735,44.4151],[4.666,44.3917],[4.6576,44.2757],[4.6598,44.2644],[4.666,44.2582],[4.6752,44.2533],[4.6835,44.2464],[4.6924,44.2171],[4.7041,44.2073],[4.7158,44.1944],[4.7214,44.1687],[4.7175,44.1231],[4.7192,44.1031],[4.7288,44.0856],[4.7356,44.0856],[4.7526,44.0965],[4.7707,44.0882],[4.7873,44.0739],[4.7998,44.0663],[4.851,44.0254],[4.8508,44.0139],[4.8464,44.0075],[4.8384,44.0048],[4.8274,44.0042],[4.8167,44.0008],[4.8186,43.9927],[4.8233,43.9825],[4.8206,43.9732],[4.7707,43.9369],[4.7622,43.9322],[4.7538,43.931],[4.7077,43.9081],[4.6554,43.8889],[4.6467,43.8841],[4.6467,43.8118],[4.6413,43.7893],[4.6115,43.7373],[4.6164,43.7136],[4.6159,43.7091]]}},{"type":"Feature","properties":{"name":"Rhône"},"geometry":{"type":"LineString","coordinates":[[4.6174,43.71],[4.6159,43.7091]]}},{"type":"Feature","properties":{"name":"Rhône"},"geometry":{"type":"LineString","coordinates":[[4.6159,43.7091],[4.6028,43.7016],[4.5913,43.7061],[4.5742,43.7094],[4.5125,43.7094],[4.4797,43.6997],[4.4617,43.6772],[4.4478,43.6518],[4.427,43.6337],[4.427,43.6275],[4.4401,43.6225],[4.4546,43.621],[4.4639,43.6175],[4.4612,43.6064],[4.4489,43.596],[4.4194,43.5892],[4.4067,43.5791],[4.4033,43.5716],[4.3881,43.5619],[4.3513,43.5449],[4.3595,43.5374],[4.4011,43.4532]]}},{"type":"Feature","properties":{"name":"Rhône"},"geometry":{"type":"LineString","coordinates":[[4.6159,43.7091],[4.6103,43.6587],[4.6223,43.648],[4.6421,43.6387],[4.677,43.5943],[4.6946,43.5791]]}},{"type":"Feature","properties":{"name":"Moselle"},"geometry":{"type":"LineString","coordinates":[[6.922,48.0154],[6.8789,48.0117],[6.8567,48.0045],[6.8407,47.993],[6.8296,47.9717],[6.8169,47.9632],[6.7969,47.9586],[6.7739,47.9579],[6.7525,47.9626],[6.7359,47.9711],[6.7234,47.9854],[6.7119,48.004],[6.6945,48.0183],[6.667,48.022],[6.6352,48.0231],[6.6069,48.031],[6.5942,48.0453],[6.5991,48.0618],[6.6074,48.0796],[6.6057,48.089],[6.5951,48.0934],[6.5605,48.1141],[6.5505,48.1225],[6.5442,48.1225],[6.5366,48.1202],[6.5252,48.1214],[6.5148,48.1257],[6.5102,48.1331],[6.5068,48.1466],[6.4985,48.1475],[6.4875,48.1439],[6.4761,48.1436],[6.456,48.1564],[6.4467,48.1745],[6.4451,48.1957],[6.448,48.2181],[6.4275,48.2529],[6.414,48.2734],[6.3976,48.2871],[6.3935,48.2938],[6.393,48.3058],[6.2568,48.4037],[6.2568,48.4099],[6.2647,48.4152],[6.2756,48.4296],[6.2842,48.4378],[6.3015,48.446],[6.3086,48.4515],[6.3115,48.4617],[6.3069,48.4853],[6.2951,48.5044],[6.2631,48.534],[6.2471,48.545],[6.2289,48.5545],[6.2233,48.5592],[6.2219,48.5637],[6.2197,48.5669],[6.2118,48.5682],[6.1975,48.5677],[6.1906,48.5685],[6.1848,48.5716],[6.1708,48.5838],[6.1496,48.5988],[6.126,48.6077],[6.1054,48.6017],[6.0873,48.6103],[6.0668,48.617],[6.0485,48.6263],[6.0371,48.6433],[6.0176,48.6506],[5.9137,48.6467],[5.9104,48.6502],[5.9033,48.6502],[5.8963,48.652],[5.8931,48.661],[5.8942,48.6717],[5.8975,48.6769],[5.9137,48.6849],[5.9216,48.6857],[5.9433,48.6844],[5.9478,48.688],[5.9506,48.6932],[5.9689,48.7047],[5.9899,48.7363],[6.0029,48.7484],[6.02,48.7531],[6.0576,48.7531],[6.0696,48.7501],[6.0785,48.7506],[6.0886,48.7565],[6.1056,48.7642],[6.124,48.7669],[6.1357,48.7722],[6.1333,48.7879],[6.1228,48.7968],[6.1115,48.8004],[6.1074,48.806],[6.1191,48.8214],[6.11,48.8255],[6.1033,48.8275],[6.0977,48.8265],[6.0925,48.8214],[6.0849,48.8342],[6.0796,48.8487],[6.081,48.8616],[6.0925,48.8698],[6.0925,48.8767],[6.072,48.8812],[6.054,48.8968],[6.0449,48.9175],[6.0508,48.9313],[6.0576,48.9374],[6.0496,48.9499],[6.0304,48.9927],[6.0422,49.0008],[6.0471,49.0123],[6.0505,49.0261],[6.0576,49.0411],[6.085,49.0821],[6.1022,49.0961],[6.152,49.1246],[6.1709,49.13],[6.1902,49.1388],[6.2038,49.1583],[6.2056,49.1772],[6.1886,49.1845],[6.1936,49.1993],[6.1957,49.2154],[6.1924,49.2298],[6.1812,49.2391],[6.1886,49.2466],[6.1812,49.2534],[6.1863,49.2584],[6.1896,49.2635],[6.1948,49.2739],[6.1709,49.2873],[6.1679,49.3095],[6.168,49.3344],[6.1532,49.3558],[6.1813,49.3646],[6.1956,49.3712],[6.2017,49.3801],[6.2095,49.3859],[6.2532,49.4042],[6.2632,49.4056],[6.27,49.4092],[6.2808,49.421],[6.2898,49.427],[6.2966,49.4258],[6.3035,49.4231],[6.3115,49.4248],[6.3186,49.4326],[6.322,49.4416],[6.3259,49.449],[6.3357,49.452],[6.346,49.4521],[6.3453,49.4553],[6.3454,49.4627],[6.3423,49.493],[6.3508,49.5349],[6.3508,49.5666],[6.3564,49.5776],[6.3715,49.593],[6.3976,49.6139],[6.4077,49.6274],[6.4152,49.6346],[6.4179,49.6391],[6.417,49.6458],[6.4109,49.6496],[6.4045,49.6525],[6.4027,49.6558],[6.4182,49.6699],[6.4917,49.7008],[6.5102,49.7127],[6.5364,49.713],[6.5632,49.7089],[6.589,49.7083],[6.6126,49.7189],[6.6206,49.7316],[6.6301,49.7615],[6.6371,49.7674],[6.6872,49.78],[6.6951,49.7844],[6.698,49.8024],[6.7023,49.815],[6.7088,49.8226],[6.7221,49.8249],[6.7343,49.822],[6.7468,49.8175],[6.7713,49.8121],[6.7941,49.7984],[6.8042,49.7946],[6.8195,49.7952],[6.8298,49.798],[6.8395,49.7991],[6.8528,49.7946],[6.8445,49.8147],[6.8393,49.8227],[6.8323,49.8288],[6.8466,49.8418],[6.8589,49.8414],[6.8989,49.8199],[6.9003,49.8232],[6.9006,49.8362],[6.8952,49.8569],[6.8943,49.8706],[6.9006,49.8834],[6.9116,49.8897],[6.9218,49.8866],[6.9299,49.877],[6.9353,49.8636],[6.9519,49.8898],[6.9689,49.9075],[6.9931,49.9168],[7.0601,49.9215],[7.0496,49.9339],[6.9961,49.9666],[7.0104,49.978],[7.0253,49.9792],[7.0649,49.9717],[7.0685,49.9691],[7.0729,49.9694],[7.0894,49.9825],[7.0954,49.9851],[7.1005,49.9842],[7.106,49.9796],[7.106,49.9735],[7.1008,49.9613],[7.1096,49.9532],[7.1237,49.9536],[7.1332,49.9666],[7.1288,49.9754],[7.1184,49.9847],[7.1121,49.9952],[7.1196,50.0075],[7.1143,50.0235],[7.1135,50.0413],[7.1184,50.0516],[7.1301,50.0448],[7.1538,50.0225],[7.1684,50.0152],[7.175,50.0243],[7.1687,50.0406],[7.1545,50.0479],[7.1386,50.0528],[7.1271,50.0622],[7.1262,50.0749],[7.1299,50.0873],[7.1286,50.0975],[7.1128,50.1031],[7.1345,50.1031],[7.156,50.0983],[7.1748,50.0908],[7.1879,50.0827],[7.195,50.0865],[7.2022,50.0895],[7.1973,50.0944],[7.1952,50.0978],[7.193,50.1005],[7.1879,50.1031],[7.199,50.1082],[7.2107,50.1102],[7.2363,50.1099],[7.2363,50.1174],[7.2258,50.1256],[7.2268,50.1354],[7.231,50.1446],[7.2295,50.1509],[7.2195,50.1511],[7.1904,50.1402],[7.1782,50.1373],[7.1714,50.1406],[7.1675,50.1478],[7.1672,50.1551],[7.1712,50.1584],[7.2465,50.1721],[7.2761,50.1719],[7.2891,50.1748],[7.3015,50.182],[7.3142,50.1865],[7.3457,50.1836],[7.3598,50.1851],[7.3682,50.1925],[7.3759,50.2042],[7.385,50.2151],[7.3977,50.2198],[7.4216,50.2244],[7.4492,50.2329],[7.4492,50.2403],[7.4418,50.2403],[7.4418,50.2465],[7.4465,50.2509],[7.447,50.2517],[7.4448,50.2533],[7.4418,50.2608],[7.4528,50.2678],[7.4566,50.2809],[7.458,50.296],[7.4628,50.3092],[7.4736,50.317],[7.4872,50.3184],[7.5213,50.3155],[7.53,50.3196],[7.5449,50.329],[7.5562,50.3384],[7.5547,50.3427],[7.5518,50.347],[7.5571,50.3567],[7.5686,50.3707],[7.5786,50.3701],[7.6064,50.3638]]}},{"type":"Feature","properties":{"name":"Dordogne"},"geometry":{"type":"LineString","coordinates":[[2.7549,45.5939],[2.731,45.5952],[2.6961,45.6105],[2.6399,45.6176],[2.6189,45.618],[2.5973,45.6143],[2.5888,45.6102],[2.5527,45.5858],[2.5346,45.5743],[2.5315,45.5733],[2.5234,45.5638],[2.5208,45.5188],[2.5154,45.5045],[2.5208,45.4859],[2.5153,45.4637],[2.5064,45.4406],[2.5017,45.4191],[2.496,45.4055],[2.4812,45.397],[2.4612,45.3936],[2.4397,45.3952],[2.4201,45.4018],[2.3837,45.419],[2.3611,45.4226],[2.3527,45.4197],[2.352,45.413],[2.356,45.4051],[2.3684,45.3901],[2.3703,45.3837],[2.3684,45.3769],[2.3604,45.3592],[2.3442,45.3406],[2.3399,45.3384],[2.3201,45.3237],[2.3198,45.3201],[2.3123,45.3158],[2.3052,45.2965],[2.299,45.2922],[2.2869,45.2909],[2.2775,45.2875],[2.2615,45.2791],[2.2573,45.2789],[2.2551,45.2811],[2.2526,45.2824],[2.2478,45.2791],[2.2455,45.2758],[2.2427,45.2684],[2.2309,45.2489],[2.2246,45.241],[2.2168,45.2376],[2.1448,45.2307],[2.138,45.232],[2.1262,45.2366],[2.121,45.2376],[2.1142,45.2354],[2.1082,45.2307],[2.1043,45.226],[2.1039,45.2239],[2.0917,45.2254],[2.0691,45.2309],[2.0561,45.2307],[2.0383,45.2213],[2.0261,45.203],[2.0077,45.1618],[1.9924,45.1437],[1.9325,45.1079],[1.9113,45.0843],[1.9128,45.0873],[1.9004,45.0766],[1.9006,45.0712],[1.9128,45.0656],[1.9128,45.0594],[1.9013,45.0572],[1.8574,45.0563],[1.8359,45.0391],[1.8293,45.0274],[1.8432,45.0184],[1.8305,45.0069],[1.8318,44.9951],[1.8389,44.982],[1.8432,44.9669],[1.8395,44.9515],[1.8306,44.9371],[1.8195,44.9246],[1.809,44.9154]]}},{"type":"Feature","properties":{"name":"Dordogne"},"geometry":{"type":"LineString","coordinates":[[1.809,44.9086],[1.7713,44.9112],[1.7236,44.9154],[1.718,44.9187],[1.7012,44.9332],[1.6961,44.9365],[1.6733,44.9348],[1.6614,44.9324],[1.6514,44.9291],[1.635,44.9175],[1.6028,44.8874],[1.5862,44.8813],[1.5773,44.8825],[1.5751,44.8837],[1.5657,44.8714],[1.5593,44.8655],[1.5513,44.8606],[1.5427,44.857],[1.5347,44.8546],[1.5202,44.8531],[1.5017,44.855],[1.4861,44.8626],[1.4794,44.8782],[1.47,44.887],[1.4478,44.8878],[1.4043,44.8813],[1.345,44.8582],[1.3176,44.8524],[1.302,44.8426],[1.292,44.8403],[1.2807,44.8415],[1.2603,44.8464],[1.2542,44.8472],[1.2499,44.8447],[1.2459,44.8395],[1.2426,44.833],[1.2405,44.8267],[1.2222,44.8309],[1.1918,44.8128],[1.1716,44.8205],[1.179,44.8267],[1.1755,44.8281],[1.1731,44.8277],[1.1719,44.8285],[1.1716,44.8335],[1.1653,44.8335],[1.1609,44.8271],[1.1538,44.8212],[1.1471,44.8207],[1.1443,44.8301],[1.1388,44.8341],[1.1264,44.8321],[1.1126,44.8282],[1.1033,44.8267],[1.0439,44.8582],[1.0276,44.8614],[1.0195,44.8554],[1.0125,44.8373],[1.0037,44.8335],[0.97,44.8323],[0.9592,44.8335],[0.9419,44.8419],[0.926,44.8539],[0.9097,44.861],[0.8904,44.8546],[0.8775,44.8636],[0.8721,44.87],[0.87,44.8782],[0.865,44.8861],[0.855,44.8782],[0.8473,44.8663],[0.8494,44.8614],[0.8298,44.8641],[0.8051,44.8874],[0.7886,44.8813],[0.7907,44.8525],[0.7519,44.8434],[0.3703,44.8614],[0.36,44.8601],[0.342,44.8555],[0.3327,44.8546],[0.3222,44.8566],[0.3154,44.8612],[0.3102,44.8657],[0.3049,44.8676],[0.2511,44.8792],[0.2331,44.8813],[0.2399,44.8676],[0.2238,44.8576],[0.1931,44.8319],[0.1745,44.8267],[0.0311,44.8403],[0.028,44.8434],[0.0105,44.8563],[0.0065,44.858],[0.0007,44.863],[-0.0127,44.8614],[-0.0345,44.8546],[-0.0977,44.8455],[-0.1321,44.8262],[-0.1495,44.829],[-0.1778,44.8472],[-0.1881,44.8509],[-0.1968,44.8521],[-0.2044,44.8544],[-0.212,44.8614],[-0.2169,44.8702],[-0.2164,44.8757],[-0.2136,44.8815],[-0.212,44.8915],[-0.2164,44.8997],[-0.2259,44.9022],[-0.2355,44.9009],[-0.24,44.898],[-0.2444,44.8898],[-0.2535,44.8984],[-0.261,44.9112],[-0.2603,44.9154],[-0.2812,44.9235],[-0.2903,44.9173],[-0.2982,44.9083],[-0.3157,44.9086],[-0.3293,44.9365],[-0.3377,44.9417],[-0.3482,44.9459],[-0.3586,44.9486],[-0.3665,44.9495],[-0.449,44.9495],[-0.4605,44.9562],[-0.4797,44.9876],[-0.4937,44.998]]}},{"type":"Feature","properties":{"name":"Yonne"},"geometry":{"type":"LineString","coordinates":[[3.9678,47.0401],[3.9404,47.0878],[3.9368,47.1046],[3.9356,47.1188],[3.9296,47.1295],[3.9126,47.1356],[3.8783,47.1697],[3.8613,47.1688],[3.8486,47.1724],[3.8237,47.184],[3.8097,47.1872],[3.7759,47.184],[3.7456,47.1886],[3.7161,47.201],[3.6882,47.2195],[3.6626,47.2421],[3.6501,47.2576],[3.6503,47.2652],[3.6558,47.2717],[3.6592,47.283],[3.6606,47.2903],[3.6635,47.2943],[3.6659,47.2986],[3.666,47.307],[3.6636,47.31],[3.6586,47.3128],[3.654,47.317],[3.6497,47.3338],[3.6445,47.334],[3.6382,47.3321],[3.6326,47.3349],[3.6296,47.342],[3.6252,47.3585],[3.6108,47.3807],[3.6087,47.3918],[3.6121,47.4237],[3.5977,47.4182],[3.5803,47.4205],[3.5635,47.4278],[3.5501,47.4373],[3.553,47.4476],[3.5503,47.4542],[3.5441,47.4558],[3.5364,47.451],[3.5183,47.4733],[3.5192,47.4963],[3.532,47.5156],[3.5501,47.5267],[3.5651,47.5292],[3.5907,47.5265],[3.6047,47.5267],[3.6032,47.5283],[3.6079,47.5328],[3.6183,47.5403],[3.617,47.5372],[3.6238,47.5351],[3.6382,47.5335],[3.6349,47.5428],[3.6359,47.5495],[3.6415,47.5533],[3.6519,47.554],[3.6459,47.5791],[3.6457,47.5847],[3.6493,47.5958],[3.6585,47.5955],[3.6697,47.5926],[3.6799,47.5955],[3.685,47.6043],[3.6843,47.6119],[3.6814,47.6187],[3.6799,47.6257],[3.6811,47.6817],[3.6774,47.6871],[3.666,47.6973],[3.6562,47.7019],[3.645,47.7038],[3.6362,47.7086],[3.6326,47.7215],[3.5994,47.7376],[3.5911,47.7464],[3.5913,47.7557],[3.5971,47.7642],[3.6121,47.7799],[3.5942,47.7909],[3.5852,47.798],[3.5774,47.8072],[3.5786,47.8113],[3.5761,47.8394],[3.574,47.8451],[3.5359,47.9032],[3.5364,47.9205],[3.5139,47.9544],[3.4623,47.9721],[3.3692,47.9876],[3.3693,47.9886],[3.3545,47.9945],[3.303,48.0126],[3.303,48.0201],[3.322,48.0286],[3.3189,48.0406],[3.2962,48.0611],[3.289,48.0703],[3.2871,48.074],[3.2887,48.0921],[3.2864,48.1004],[3.281,48.1075],[3.2743,48.1127],[3.2688,48.1157],[3.2781,48.1253],[3.3045,48.1434],[3.3098,48.1533],[3.3029,48.1606],[3.2621,48.1846],[3.2749,48.2088],[3.2636,48.2305],[3.2446,48.2506],[3.2306,48.2772],[3.1948,48.3214],[3.184,48.3286],[3.1076,48.3485],[3.1069,48.3504],[3.0954,48.3596],[3.0901,48.3627],[3.0824,48.3638],[3.0664,48.3625],[3.0597,48.3658],[3.0359,48.3727],[3.002,48.3732],[2.9722,48.3778],[2.9609,48.3968]]}},{"type":"Feature","properties":{"name":"Doubs"},"geometry":{"type":"LineString","coordinates":[[6.1502,46.6476],[6.1433,46.6682],[6.1463,46.6861],[6.1633,46.7001],[6.1858,46.7109],[6.2228,46.7332],[6.2583,46.7477],[6.2859,46.763],[6.288,46.7769],[6.2861,46.794],[6.2973,46.8005],[6.3388,46.8346],[6.34,46.8519],[6.3499,46.8619],[6.3628,46.8686],[6.373,46.8756],[6.3567,46.9131],[6.353,46.9335],[6.3593,46.95],[6.3669,46.9461],[6.375,46.9446],[6.3836,46.9455],[6.3925,46.9483],[6.4241,46.9687],[6.4841,47.0223],[6.5064,47.0332],[6.5542,47.0332],[6.5663,47.0357],[6.6017,47.0528],[6.6055,47.053],[6.6157,47.0517],[6.6208,47.0521],[6.6271,47.0546],[6.6391,47.062],[6.6459,47.0639],[6.6447,47.0677],[6.6489,47.0769],[6.6587,47.0915],[6.6668,47.0961],[6.6765,47.0992],[6.6958,47.1017],[6.7311,47.0991],[6.7455,47.1043],[6.7442,47.1213],[6.7742,47.1284],[6.8398,47.1697],[6.8588,47.1912],[6.8879,47.2115],[6.9558,47.2455],[6.9517,47.2703],[6.958,47.2908],[6.9768,47.304],[7.0098,47.307],[7.0187,47.3096],[7.0291,47.3173],[7.0378,47.3206],[7.0427,47.3199],[7.0486,47.317],[7.0558,47.3144],[7.0651,47.3144],[7.1332,47.3349],[7.1567,47.3475],[7.1684,47.3585],[7.1675,47.369],[7.1025,47.3615],[7.0838,47.3563],[7.0752,47.3553],[7.0476,47.3553],[6.9863,47.3479],[6.9179,47.3479],[6.8989,47.3454],[6.8683,47.3354],[6.8595,47.3349],[6.8494,47.3292],[6.8329,47.3267],[6.7981,47.3281],[6.7786,47.3323],[6.7665,47.3383],[6.7598,47.3461],[6.7565,47.3553],[6.7568,47.3631],[6.7607,47.3736],[6.7678,47.3852],[6.7776,47.3963],[6.7732,47.4068],[6.7785,47.4152],[6.7866,47.4254],[6.7956,47.4559],[6.8074,47.4555],[6.8223,47.4512],[6.8359,47.4544],[6.844,47.4667],[6.842,47.4777],[6.8324,47.4864],[6.8186,47.4919],[6.8042,47.4922],[6.7919,47.4878],[6.7808,47.482],[6.7702,47.4782],[6.7228,47.4782],[6.7156,47.4748],[6.7092,47.4695],[6.6945,47.4639],[6.6479,47.454],[6.6257,47.439],[6.6126,47.4373],[6.605,47.4429],[6.5974,47.4533],[6.5896,47.4615],[6.582,47.4612],[6.5647,47.4448],[6.5553,47.4468],[6.5461,47.4455],[6.5376,47.442],[6.5305,47.4373],[6.5468,47.4322],[6.5549,47.4306],[6.5647,47.4305],[6.5647,47.4237],[6.5478,47.4219],[6.531,47.4183],[6.5156,47.4121],[6.5027,47.4025],[6.5046,47.3984],[6.5081,47.3874],[6.5102,47.3832],[6.4902,47.3785],[6.4382,47.3758],[6.4245,47.3724],[6.416,47.3663],[6.4062,47.363],[6.3838,47.3615],[6.3788,47.3592],[6.3518,47.3417],[6.3372,47.3436],[6.3118,47.3391],[6.2879,47.3316],[6.2774,47.3243],[6.2659,47.3145],[6.2109,47.2965],[6.1426,47.2897],[6.1199,47.2838],[6.0986,47.2734],[6.0932,47.2726],[6.0866,47.2736],[6.0811,47.2736],[6.0788,47.2697],[6.0785,47.2604],[6.0771,47.256],[6.0679,47.2486],[6.0553,47.241],[6.0439,47.2407],[6.0166,47.2455],[6.0213,47.2409],[6.0264,47.2348],[6.0304,47.2319],[5.9478,47.1971],[5.9582,47.1975],[5.9614,47.1971],[5.9614,47.1909],[5.9301,47.1796],[5.9165,47.1798],[5.8993,47.1909],[5.8931,47.184],[5.9067,47.1766],[5.9067,47.1697],[5.8984,47.1646],[5.8958,47.1593],[5.8947,47.1533],[5.8897,47.1458],[5.8821,47.1423],[5.8638,47.1423],[5.8447,47.1341],[5.8483,47.1617],[5.8423,47.1697],[5.7935,47.1718],[5.7771,47.1697],[5.7312,47.1488],[5.7219,47.1424],[5.7156,47.1424],[5.7072,47.1509],[5.6885,47.1527],[5.6166,47.1434],[5.5854,47.1356],[5.5707,47.1267],[5.5496,47.1041],[5.5369,47.0947],[5.5209,47.0926],[5.5,47.0922],[5.4855,47.088],[5.4892,47.0742],[5.4812,47.0679],[5.4592,47.0559],[5.4509,47.0537],[5.4526,47.0525],[5.4529,47.0491],[5.4519,47.0444],[5.4499,47.0386],[5.4468,47.0327],[5.4431,47.027],[5.4387,47.0223],[5.4338,47.0189],[5.4413,47.0128],[5.4164,47.0128],[5.3906,47.0079],[5.3762,46.9932],[5.386,46.9643],[5.3759,46.9574],[5.3693,46.9331],[5.3582,46.9234],[5.3484,46.9294],[5.3379,46.9314],[5.3276,46.9294],[5.3178,46.9234],[5.2961,46.935],[5.2634,46.9378],[5.2305,46.9317],[5.2085,46.9165],[5.2065,46.9248],[5.2023,46.9301],[5.1963,46.9339],[5.188,46.937],[5.173,46.9315],[5.1677,46.9308],[5.1633,46.9331],[5.1582,46.9376],[5.1543,46.942],[5.154,46.9439],[5.1313,46.9432],[5.1157,46.9373],[5.0763,46.9054],[5.0625,46.9008],[5.0478,46.9007],[5.0134,46.9043],[4.9934,46.9041],[4.9728,46.8998],[4.9546,46.8892],[4.9675,46.8738],[4.9643,46.8531],[4.9511,46.8334]]}},{"type":"Feature","properties":{"name":"Meuse"},"geometry":{"type":"LineString","coordinates":[[5.6909,50.7681],[5.6983,50.784],[5.7041,50.8245],[5.7004,50.8643],[5.6814,50.8846],[5.6879,50.8894],[5.7014,50.9051],[5.7055,50.9068],[5.7171,50.9095],[5.7219,50.9119],[5.7346,50.9243],[5.752,50.9475],[5.7634,50.9597],[5.7538,50.9633],[5.7441,50.9635],[5.7219,50.9597],[5.7612,50.9995],[5.7771,51.0239],[5.7634,51.0354],[5.7658,51.0487],[5.7709,51.0584],[5.7791,51.0616],[5.7907,51.0553],[5.7983,51.0617],[5.8039,51.0689],[5.8113,51.0826],[5.8085,51.0866],[5.8069,51.0897],[5.8045,51.0969],[5.8154,51.0961],[5.8261,51.0972],[5.8362,51.0998],[5.8454,51.1037],[5.8228,51.1191],[5.8259,51.1304],[5.8596,51.1515],[5.8748,51.1527],[5.8838,51.159],[5.8906,51.1668],[5.8993,51.1719],[5.9165,51.1715],[5.9328,51.167],[5.9463,51.1667],[5.9546,51.1788],[5.9457,51.1808],[5.9417,51.1835],[5.939,51.1873],[5.9341,51.1925],[5.9538,51.192],[5.969,51.1934],[5.979,51.2003],[5.9826,51.217],[5.9902,51.2289],[6.0054,51.2394],[6.0156,51.2497],[6.0092,51.2613],[6.0092,51.2676],[6.031,51.2702],[6.0647,51.296],[6.1005,51.3089],[6.113,51.3244],[6.1228,51.3427],[6.1333,51.3575],[6.1425,51.3627],[6.1528,51.3661],[6.1619,51.3719],[6.1675,51.3842],[6.166,51.3918],[6.1558,51.4068],[6.1532,51.4156],[6.1567,51.4311],[6.1745,51.4639],[6.1812,51.4804],[6.1801,51.4811],[6.1803,51.5033],[6.1812,51.5084],[6.1723,51.5127],[6.1458,51.5186],[6.1403,51.5251],[6.1326,51.544],[6.114,51.5534],[6.0713,51.563],[6.0593,51.5673],[6.0534,51.5703],[6.0493,51.5745],[6.0434,51.5828]]}},{"type":"Feature","properties":{"name":"Meuse"},"geometry":{"type":"LineString","coordinates":[[4.7077,49.7674],[4.7014,49.7674]]}},{"type":"Feature","properties":{"name":"Meuse"},"geometry":{"type":"LineString","coordinates":[[5.6052,48.0013],[5.5813,47.9998],[5.5613,48.001],[5.5469,48.0061],[5.5369,48.0059],[5.53,48.0264],[5.5573,48.1567],[5.575,48.1929],[5.5937,48.2148],[5.6194,48.2529],[5.6253,48.2566],[5.6294,48.2567],[5.6321,48.2591],[5.6331,48.2699],[5.6366,48.2728],[5.6445,48.2741],[5.6537,48.2742],[5.6604,48.2734],[5.6601,48.3098],[5.6917,48.3798],[5.674,48.4037],[5.6774,48.4137],[5.6846,48.4515],[5.695,48.454],[5.7023,48.4606],[5.7067,48.4705],[5.7083,48.4825],[5.7114,48.4922],[5.7256,48.5128],[5.7293,48.5198],[5.7288,48.5307],[5.7256,48.538],[5.7207,48.5378],[5.7156,48.5266],[5.7083,48.5266],[5.7045,48.5385],[5.6975,48.5475],[5.6873,48.553],[5.674,48.5545],[5.674,48.5607],[5.6869,48.5693],[5.6872,48.5843],[5.6826,48.6013],[5.6814,48.6159],[5.6902,48.6267],[5.7021,48.6356],[5.7051,48.645],[5.6877,48.6575],[5.7157,48.6646],[5.7278,48.6715],[5.7256,48.6815],[5.7094,48.701],[5.7009,48.7083],[5.6877,48.7122],[5.676,48.7107],[5.6531,48.7009],[5.643,48.6986],[5.6333,48.7031],[5.6328,48.7129],[5.6401,48.7224],[5.6536,48.7259],[5.6536,48.7332],[5.6438,48.7416],[5.6374,48.7449],[5.6296,48.7464],[5.6221,48.7498],[5.6193,48.7578],[5.6172,48.7671],[5.612,48.7742],[5.5901,48.7796],[5.5884,48.7805],[5.5766,48.7827],[5.5755,48.7882],[5.5774,48.7959],[5.5747,48.8044],[5.5676,48.8077],[5.5507,48.8059],[5.5437,48.8078],[5.5398,48.8145],[5.5358,48.8321],[5.5335,48.8357],[5.5178,48.8397],[5.5202,48.8485],[5.5335,48.8576],[5.5505,48.8624],[5.5368,48.8724],[5.5254,48.8732],[5.5127,48.8706],[5.4959,48.8698],[5.5039,48.8792],[5.518,48.8869],[5.531,48.892],[5.5369,48.8934],[5.5331,48.9095],[5.5242,48.916],[5.5127,48.9207],[5.5021,48.9313],[5.501,48.9409],[5.5073,48.9619],[5.5059,48.9688],[5.4242,49.0243],[5.4168,49.0275],[5.4121,49.0345],[5.4138,49.0502],[5.4202,49.0747],[5.4106,49.1326],[5.4031,49.1402],[5.3793,49.151],[5.3867,49.1669],[5.3782,49.1743],[5.365,49.1775],[5.3582,49.1814],[5.36,49.191],[5.3725,49.2193],[5.3189,49.2213],[5.3041,49.2255],[5.2974,49.2362],[5.3086,49.2435],[5.3376,49.2534],[5.2863,49.291],[5.2638,49.3133],[5.2632,49.3292],[5.2475,49.3347],[5.2129,49.3388],[5.198,49.3459],[5.1902,49.3577],[5.1858,49.3885],[5.1806,49.4042],[5.1911,49.4061],[5.1975,49.4105],[5.2007,49.4178],[5.2017,49.4278],[5.1995,49.4335],[5.1902,49.4427],[5.188,49.4486],[5.189,49.4544],[5.1912,49.4573],[5.1934,49.4594],[5.1943,49.4623],[5.1951,49.4686],[5.1965,49.4727],[5.1967,49.4776],[5.1943,49.4862],[5.165,49.5395],[5.1575,49.5472],[5.1453,49.5488],[5.1049,49.5473],[5.0986,49.5482],[5.0955,49.5516],[5.0915,49.5576],[5.084,49.5623],[5.0707,49.5619],[5.0707,49.5681],[5.0901,49.5787],[5.0993,49.5911],[5.096,49.6041],[5.0781,49.6165],[4.9584,49.6739],[4.9404,49.6854],[4.9268,49.7127],[4.9063,49.7394],[4.8945,49.7374],[4.8932,49.7316],[4.895,49.723],[4.8926,49.7127],[4.8953,49.7137],[4.8979,49.7105],[4.8975,49.7049],[4.8926,49.6984],[4.8886,49.6974],[4.8721,49.6984],[4.8303,49.6947],[4.8062,49.6951],[4.7902,49.6984],[4.779,49.7081],[4.7793,49.7161],[4.7831,49.7239],[4.7827,49.7326],[4.7764,49.7442],[4.7725,49.7484],[4.7554,49.7537],[4.7355,49.7575],[4.6916,49.7599],[4.6735,49.7674],[4.6833,49.7726],[4.6926,49.7741],[4.7009,49.7722],[4.7077,49.7674],[4.7356,49.7674],[4.7214,49.781],[4.7307,49.7822],[4.7397,49.7818],[4.7478,49.7828],[4.7554,49.7879],[4.7541,49.8027],[4.7493,49.8118],[4.7458,49.8211],[4.7485,49.8362],[4.7542,49.8449],[4.7621,49.8482],[4.7719,49.847],[4.7827,49.8424],[4.7754,49.8542],[4.7637,49.8612],[4.7356,49.8697],[4.7402,49.876],[4.7414,49.8809],[4.7377,49.8854],[4.7288,49.8909],[4.7189,49.8782],[4.7102,49.8835],[4.7039,49.8985],[4.7014,49.9148],[4.6956,49.9156],[4.6835,49.9139],[4.6735,49.9185],[4.6735,49.9387],[4.6667,49.9387],[4.6594,49.9269],[4.6511,49.9286],[4.6404,49.9353],[4.6257,49.9387],[4.6257,49.9449],[4.642,49.9466],[4.6542,49.9546],[4.6608,49.9664],[4.6598,49.9796],[4.6672,49.9838],[4.6758,49.9858],[4.698,49.9864],[4.7124,49.9894],[4.7136,49.9956],[4.7078,50.0006],[4.7014,50.0001],[4.7018,50.0022],[4.7072,50.0142],[4.7117,50.0157],[4.7188,50.0142],[4.7258,50.0137],[4.7288,50.0178],[4.7293,50.0799],[4.7312,50.0865],[4.7424,50.0963],[4.7747,50.1138],[4.7793,50.1174],[4.7888,50.1136],[4.7922,50.0979],[4.8032,50.0963],[4.8139,50.1014],[4.8152,50.1095],[4.8105,50.1178],[4.8032,50.1236],[4.8032,50.1304],[4.833,50.1444],[4.8455,50.154],[4.8342,50.1584],[4.8298,50.1669],[4.8306,50.2124],[4.843,50.2132],[4.8591,50.2064],[4.8731,50.2036],[4.8789,50.2161],[4.8843,50.2192],[4.8953,50.2206],[4.9041,50.2231],[4.9032,50.2294],[4.8994,50.2388],[4.9058,50.2445],[4.9168,50.2468],[4.9268,50.2465],[4.9147,50.2768],[4.9097,50.2813],[4.9021,50.2845],[4.9028,50.2923],[4.906,50.3016],[4.9063,50.3092],[4.898,50.3203],[4.8848,50.3338],[4.8703,50.3455],[4.8584,50.3502],[4.8704,50.3537],[4.8745,50.3592],[4.8757,50.3669],[4.8789,50.3769],[4.8801,50.383],[4.8799,50.3899],[4.8818,50.3981],[4.8892,50.4082],[4.8901,50.4215],[4.8777,50.435],[4.8684,50.4496],[4.8789,50.4663],[4.8948,50.4725],[4.9578,50.4868],[4.9685,50.4847],[4.9877,50.4757],[4.999,50.4737],[5.0088,50.4761],[5.0139,50.4819],[5.0175,50.4885],[5.023,50.4935],[5.0424,50.4996],[5.1083,50.501],[5.1294,50.5049],[5.1743,50.5226],[5.1943,50.5277],[5.2162,50.5269],[5.2314,50.5241],[5.2442,50.5257],[5.2598,50.5383],[5.2678,50.5419],[5.2805,50.5432],[5.293,50.542],[5.3106,50.5328],[5.3207,50.5357],[5.3376,50.5482],[5.3849,50.5751],[5.4133,50.5851],[5.4622,50.5925],[5.4904,50.607],[5.499,50.6102],[5.5607,50.6102],[5.5715,50.6157],[5.5785,50.6284],[5.5844,50.6422],[5.5916,50.6519],[5.5991,50.6546],[5.6179,50.6561],[5.6262,50.658],[5.6348,50.6633],[5.6389,50.6684],[5.6416,50.6735],[5.6462,50.6785],[5.6659,50.6934],[5.6882,50.714],[5.6996,50.7358],[5.6877,50.7542],[5.6877,50.7611],[5.6909,50.7681]]}},{"type":"Feature","properties":{"name":"Garonne"},"geometry":{"type":"LineString","coordinates":[[0.9245,42.6461],[0.9197,42.6754],[0.9026,42.699],[0.8645,42.7078],[0.8213,42.7119],[0.7919,42.7242],[0.769,42.7381],[0.7263,42.7506],[0.7162,42.7535],[0.6987,42.7666],[0.6992,42.7916],[0.7336,42.8634],[0.7278,42.8858],[0.71,42.8997],[0.686,42.9262],[0.6604,42.9387],[0.6499,42.9478],[0.6386,42.9683],[0.624,43.0013],[0.6059,43.0315],[0.5862,43.0449],[0.57,43.0499],[0.5598,43.0597],[0.5588,43.0719],[0.5645,43.0825],[0.5781,43.0902],[0.617,43.1009],[0.6366,43.1101],[0.6611,43.115],[0.7228,43.1048],[0.7586,43.1102],[0.8274,43.1048],[0.8661,43.1063],[0.9043,43.121],[0.9419,43.1498],[0.9877,43.1812],[1.1047,43.2225],[1.1524,43.2521],[1.185,43.2793],[1.226,43.3059],[1.2488,43.3263],[1.2875,43.3719],[1.3001,43.3961],[1.333,43.4789],[1.3489,43.4942],[1.4043,43.5176],[1.4338,43.555],[1.4086,43.6246],[1.3298,43.7373],[1.3251,43.7408],[1.3125,43.7478],[1.3088,43.751],[1.3049,43.7598],[1.3019,43.7757],[1.2988,43.7814],[1.2717,43.8019],[1.2593,43.8142],[1.2542,43.8289],[1.2495,43.8341],[1.22,43.8807],[1.1886,43.9208],[1.179,43.9291],[1.179,43.9453],[1.1667,43.9682],[1.1484,43.9886],[1.1306,43.9974],[1.1045,44.0065],[1.0859,44.0278],[1.071,44.0527],[1.0554,44.0725],[1.0364,44.0811],[1.0288,44.0829],[1.0048,44.0885],[0.9717,44.0904],[0.9252,44.0766],[0.8889,44.0812],[0.8528,44.0909],[0.8296,44.0999],[0.8189,44.1074],[0.7986,44.1263],[0.7886,44.134],[0.7742,44.1393],[0.7424,44.1456],[0.7039,44.1622],[0.6435,44.1643],[0.6172,44.1756],[0.5991,44.1968],[0.5877,44.2144],[0.5712,44.2264],[0.4181,44.2507],[0.3601,44.2515],[0.3332,44.26],[0.3218,44.2817],[0.3254,44.3111],[0.3249,44.3242],[0.3188,44.3363],[0.3057,44.3538],[0.2944,44.3742],[0.2932,44.381],[0.2962,44.3939],[0.2944,44.4015],[0.2914,44.4031],[0.2747,44.409],[0.2609,44.4186],[0.2529,44.422],[0.2453,44.423],[0.2295,44.422],[0.2228,44.4254],[0.2009,44.4454],[0.1369,44.4841],[0.1284,44.5003],[0.1238,44.5045],[0.1172,44.5052],[0.1021,44.5032],[0.0959,44.5045],[0.0754,44.5187],[0.0738,44.523],[0.0741,44.5297],[0.0724,44.536],[0.0649,44.5386],[0.0417,44.5333],[0.0317,44.5354],[0.0277,44.5489],[0.0206,44.557],[-0.0277,44.566],[-0.0361,44.5826],[-0.0413,44.5865],[-0.0513,44.5869],[-0.0601,44.5845],[-0.0681,44.5814],[-0.0755,44.5797],[-0.1335,44.5797],[-0.2295,44.5681],[-0.2603,44.5734],[-0.2843,44.588],[-0.3718,44.691],[-0.3839,44.6998],[-0.4338,44.7174],[-0.5003,44.7584],[-0.52,44.7783],[-0.5279,44.8096],[-0.535,44.8237],[-0.5506,44.8326],[-0.567,44.8394],[-0.5758,44.8472],[-0.5735,44.861],[-0.5496,44.8819],[-0.5417,44.898]]}},{"type":"Feature","properties":{"name":"Loire"},"geometry":{"type":"LineString","coordinates":[[3.0111,47.174],[2.9926,47.2034],[2.9877,47.2216],[2.9858,47.2403],[2.9802,47.2562],[2.9717,47.2692],[2.9609,47.2796],[2.9331,47.3001],[2.904,47.3121],[2.8953,47.3175],[2.8806,47.3332],[2.8787,47.3458],[2.8859,47.359],[2.9292,47.4199],[2.9331,47.4339],[2.9299,47.4534],[2.9216,47.4671],[2.8779,47.5198],[2.8437,47.5434],[2.8374,47.5527],[2.7966,47.5881],[2.7656,47.6025],[2.7546,47.6094],[2.7412,47.6223],[2.7402,47.6263],[2.7415,47.6311],[2.7416,47.635],[2.7376,47.6365],[2.7331,47.6376],[2.7207,47.6436],[2.7171,47.6464],[2.7107,47.6539],[2.7068,47.6575],[2.459,47.7659],[2.426,47.7731],[2.3682,47.7705],[2.3503,47.7731],[2.3445,47.7774],[2.3394,47.7844],[2.332,47.7908],[2.3198,47.7936],[2.3013,47.7945],[2.2946,47.7967],[2.2888,47.8011],[2.2888,47.8072],[2.2983,47.8203],[2.249,47.837],[2.2478,47.855],[2.2327,47.8598],[2.1413,47.8653],[2.0995,47.876],[2.0759,47.8755],[2.0668,47.8717],[2.0588,47.8663],[2.051,47.8621],[2.0418,47.8624],[2.0361,47.8684],[2.0309,47.8861],[2.0247,47.8898],[2.0058,47.8919],[1.9756,47.9013],[1.8836,47.9056],[1.8676,47.9],[1.853,47.8889],[1.8351,47.8806],[1.7302,47.8531],[1.7202,47.8451],[1.7144,47.8362],[1.6725,47.7936],[1.6633,47.7894],[1.6552,47.7886],[1.647,47.7869],[1.6377,47.7799],[1.6172,47.7427],[1.6118,47.7386],[1.5886,47.7325],[1.5832,47.7284],[1.5824,47.7143],[1.5796,47.7077],[1.5247,47.6746],[1.5042,47.6668],[1.4592,47.6603],[1.439,47.6514],[1.3095,47.5724],[1.282,47.5465],[1.2581,47.5131],[1.2424,47.4981],[1.2232,47.4919],[1.2013,47.4894],[0.9055,47.4007],[0.8228,47.4025],[0.7859,47.4085],[0.7078,47.4086],[0.5452,47.3814],[0.5073,47.369],[0.4932,47.3616],[0.479,47.3519],[0.4556,47.3315],[0.4426,47.3259],[0.4087,47.324],[0.3941,47.3175],[0.3731,47.3032],[0.2109,47.2425],[0.1227,47.2361],[0.0964,47.23],[0.0754,47.2182],[0.01,47.2477],[-0.0102,47.2517],[-0.0325,47.2532],[-0.053,47.2577],[-0.0718,47.2646],[-0.0891,47.2734],[-0.144,47.3146],[-0.1611,47.3206],[-0.1809,47.3243],[-0.2497,47.3623],[-0.2672,47.3832],[-0.2742,47.3891],[-0.2913,47.4001],[-0.2986,47.4063],[-0.3135,47.4129],[-0.3771,47.4237],[-0.3995,47.4239],[-0.456,47.4168],[-0.513,47.4237],[-0.5347,47.4237],[-0.6099,47.4134],[-0.6177,47.4025],[-0.6362,47.3911],[-0.6719,47.3758],[-0.6872,47.3721],[-0.7169,47.3699],[-0.7313,47.371],[-0.8364,47.3963],[-0.8817,47.4003],[-1.0009,47.3832],[-1.1287,47.3815],[-1.1648,47.3758],[-1.2232,47.3511],[-1.2439,47.3479],[-1.2862,47.3458],[-1.3043,47.3409],[-1.4605,47.2533],[-1.4879,47.2262],[-1.5006,47.2182],[-1.5107,47.2171],[-1.5319,47.2188],[-1.5421,47.2182],[-1.5483,47.2158],[-1.5694,47.2045],[-1.5883,47.1997],[-1.63,47.1961],[-1.6514,47.1971],[-1.7121,47.2105],[-1.7345,47.2108]]}},{"type":"Feature","properties":{"name":"Loire"},"geometry":{"type":"LineString","coordinates":[[3.0782,46.9851],[3.0717,46.999],[3.0715,47.016],[3.0741,47.0348],[3.0708,47.0537],[3.0618,47.0627],[3.0495,47.067],[3.0376,47.0731],[3.0293,47.0878],[3.0285,47.1022],[3.0303,47.1166],[3.03,47.1319],[3.0219,47.1492],[3.0151,47.1677],[3.0111,47.174]]}},{"type":"Feature","properties":{"name":"Loire"},"geometry":{"type":"LineString","coordinates":[[4.1906,44.8274],[4.1834,44.8003],[4.1726,44.7829],[4.1483,44.7816],[4.1084,44.7934],[4.0671,44.8144],[4.0127,44.8519],[3.9387,44.8773],[3.9235,44.8947],[3.9196,44.9138],[3.9089,44.9446],[3.9168,44.9663],[3.9081,44.9763],[3.8958,44.9864],[3.89,44.9965],[3.8941,45.0037],[3.9192,45.0134],[3.9292,45.0278],[3.9292,45.0467],[3.9076,45.0781],[3.9065,45.0903],[3.9085,45.1018],[3.9035,45.1251],[3.9178,45.1384],[3.926,45.1544],[3.93,45.1741],[3.9292,45.191],[3.9375,45.2034],[3.9631,45.2121],[3.9959,45.2152],[4.021,45.2133],[4.0497,45.2185],[4.0915,45.2387],[4.124,45.2653],[4.1306,45.2859],[4.1279,45.3034],[4.1375,45.3225],[4.1541,45.3364],[4.1784,45.3467],[4.2007,45.3803],[4.2219,45.3993],[4.2401,45.4223],[4.2468,45.4518],[4.2472,45.4779],[4.2521,45.5057],[4.2483,45.5255],[4.2479,45.5456],[4.2625,45.5697],[4.2383,45.5986],[4.2356,45.6113],[4.2371,45.6238],[4.2329,45.6384],[4.222,45.6521],[4.197,45.6718],[4.1985,45.6813],[4.2039,45.6942],[4.2025,45.7282],[4.2059,45.7543],[4.1908,45.7851],[4.1852,45.8147],[4.1641,45.8286],[4.1336,45.8676],[4.1126,45.8793],[4.1073,45.8896],[4.0942,45.9055],[4.04,45.942],[4.0274,45.9617],[4.0281,45.9802],[4.0337,45.9967],[4.0511,46.0162],[4.1033,46.0657],[4.1057,46.0788],[4.0989,46.0912],[4.0999,46.1423],[4.093,46.1737],[4.0769,46.2016],[4.035,46.2418],[4.022,46.266],[4.0183,46.2865],[4.021,46.2973],[4.0198,46.3095],[4.0161,46.3167],[4.0008,46.3293],[4.0015,46.3323],[4.0012,46.3354],[4.0,46.3376],[3.9982,46.3394],[3.9951,46.3419],[3.9915,46.3457],[3.9889,46.3491],[3.9871,46.3526],[3.986,46.3563],[3.986,46.3607],[3.9872,46.3664],[3.9876,46.3709],[3.9863,46.3745],[3.9844,46.3775],[3.9819,46.3803],[3.9798,46.3832],[3.979,46.3882],[3.9792,46.3949],[3.9888,46.4226],[3.9895,46.4272],[3.9891,46.4318],[3.9867,46.4363],[3.9842,46.4398],[3.9821,46.4434],[3.9807,46.4482],[3.9802,46.455],[3.9788,46.4626],[3.9768,46.4669],[3.9744,46.4694],[3.9719,46.4706],[3.9587,46.4753],[3.9466,46.4813],[3.9368,46.4841],[3.9066,46.4872],[3.8782,46.4929],[3.8739,46.4946],[3.8706,46.4967],[3.8665,46.5011],[3.8648,46.5026],[3.8499,46.5092],[3.839,46.519],[3.8348,46.5219],[3.8301,46.5229],[3.8249,46.523],[3.8099,46.5219],[3.8054,46.5231],[3.802,46.5251],[3.799,46.5277],[3.7957,46.5298],[3.7909,46.5312],[3.7805,46.533],[3.7762,46.5347],[3.7673,46.5406],[3.7648,46.5418],[3.7485,46.5457],[3.741,46.5493],[3.7389,46.553],[3.7394,46.5566],[3.7434,46.5635],[3.7446,46.5676],[3.7456,46.5933],[3.7429,46.6102],[3.74,46.6154],[3.7363,46.6186],[3.7244,46.6227],[3.7078,46.64],[3.7028,46.6516],[3.6987,46.6571],[3.6939,46.6602],[3.6887,46.6618],[3.6849,46.6638],[3.6735,46.6739],[3.6707,46.6767],[3.6579,46.6859],[3.6558,46.6907],[3.6526,46.7012],[3.6497,46.7076],[3.6248,46.7392],[3.6206,46.7547],[3.6106,46.761],[3.5999,46.7619],[3.5374,46.8002],[3.466,46.8352],[3.4317,46.8432],[3.3656,46.8423],[3.3467,46.8485],[3.3311,46.8603],[3.3091,46.8729],[3.2863,46.8906],[3.2515,46.9407],[3.229,46.963],[3.2028,46.978],[3.176,46.9868],[3.1531,46.9867],[3.1203,46.9728],[3.1013,46.9693],[3.0842,46.9728],[3.0782,46.9852]]}},{"type":"Feature","properties":{"name":"Adour"},"geometry":{"type":"LineString","coordinates":[[0.2385,42.914],[0.2483,42.9328],[0.2608,42.9452],[0.2635,42.958],[0.2503,42.9775],[0.2261,42.998],[0.203,43.0131],[0.1826,43.0301],[0.1245,43.1186],[0.1045,43.1629],[0.0907,43.2251],[0.0863,43.2812],[0.089,43.3109],[0.0933,43.3318],[0.0922,43.3666],[0.0868,43.4037],[0.0806,43.4302],[0.0693,43.4491],[0.0519,43.4678],[0.0363,43.4887],[0.0245,43.5355],[0.0039,43.572],[-0.0115,43.6297],[-0.0229,43.6539],[-0.042,43.6683],[-0.0689,43.6745],[-0.1006,43.673],[-0.1315,43.6687],[-0.1687,43.6723],[-0.2157,43.6899],[-0.2549,43.713],[-0.2847,43.7432],[-0.3085,43.7588],[-0.3417,43.7705],[-0.4067,43.7761],[-0.4298,43.7812],[-0.4635,43.7842],[-0.5736,43.7776],[-0.6249,43.7816],[-0.7389,43.771],[-0.7687,43.7741],[-0.7919,43.7822],[-0.8369,43.8023],[-0.8603,43.8077],[-0.8794,43.8087],[-0.8912,43.8039],[-0.9025,43.789],[-0.9117,43.789],[-0.9258,43.7829],[-0.9574,43.7407],[-0.9674,43.7382],[-0.979,43.7442],[-0.998,43.7445],[-1.0199,43.7389],[-1.0541,43.7243],[-1.0816,43.7209],[-1.0966,43.7033],[-1.128,43.6872],[-1.1617,43.6642],[-1.1968,43.6579],[-1.2133,43.6486],[-1.2251,43.6354],[-1.2314,43.6231],[-1.2281,43.6123],[-1.2053,43.5905],[-1.1984,43.5744],[-1.2041,43.5643],[-1.2101,43.5537],[-1.2429,43.5309],[-1.2843,43.5143],[-1.3166,43.5087],[-1.3845,43.5076],[-1.4183,43.5038],[-1.4407,43.4991],[-1.4709,43.5095],[-1.5139,43.5386]]}},{"type":"Feature","properties":{"name":"Charente"},"geometry":{"type":"LineString","coordinates":[[0.7479,45.7953],[0.6519,45.8491],[0.6206,45.8716],[0.6057,45.8881],[0.6011,45.8996],[0.5925,45.9132],[0.5676,45.9346],[0.5407,45.9637],[0.5111,46.0246],[0.4507,46.0668],[0.4309,46.0915],[0.4181,46.1161],[0.4033,46.1355],[0.386,46.1491],[0.3667,46.1594],[0.3386,46.1628],[0.2995,46.1599],[0.2637,46.1502],[0.2433,46.1372],[0.2391,46.1216],[0.2483,46.0895],[0.249,46.0725],[0.2428,46.0558],[0.2311,46.0402],[0.2251,46.02],[0.243,45.9636],[0.2439,45.9405],[0.2351,45.9215],[0.2222,45.9028],[0.196,45.892],[0.1174,45.8935],[0.0975,45.8854],[0.0832,45.871],[0.0584,45.8573],[0.042,45.845],[0.0482,45.8339],[0.0638,45.821],[0.0753,45.7917],[0.1047,45.7854],[0.115,45.7709],[0.1228,45.7534],[0.1424,45.7282],[0.1506,45.7009],[0.1482,45.6778],[0.1326,45.6728],[0.114,45.6745],[0.0938,45.6563],[0.0483,45.6396],[0.0172,45.6223],[-0.0076,45.6308],[-0.0229,45.624],[-0.0404,45.6209],[-0.0588,45.6336],[-0.0792,45.6525],[-0.1182,45.6713],[-0.1356,45.6837],[-0.1564,45.6876],[-0.1847,45.688],[-0.2126,45.685],[-0.2435,45.6872],[-0.3111,45.7102],[-0.3323,45.7067],[-0.3584,45.697],[-0.4017,45.6925],[-0.4454,45.6938],[-0.4723,45.6988],[-0.491,45.7056],[-0.5446,45.7187],[-0.5757,45.7285],[-0.6009,45.7432],[-0.6164,45.7624],[-0.6259,45.7803],[-0.6441,45.8027],[-0.6456,45.8181],[-0.6527,45.8354],[-0.6949,45.8647],[-0.7029,45.8779],[-0.7161,45.8867],[-0.7886,45.8931],[-0.8126,45.9028],[-0.8271,45.9125],[-0.858,45.9197],[-0.8939,45.9451],[-0.9213,45.9511],[-0.9433,45.9489],[-0.9509,45.9421],[-0.9537,45.9337],[-0.9641,45.9277],[-0.9792,45.9272],[-0.9933,45.9315],[-1.0006,45.9426],[-0.9997,45.958],[-1.0061,45.969],[-1.0315,45.9691],[-1.0692,45.9643]]}},{"type":"Feature","properties":{"name":"Saône"},"geometry":{"type":"LineString","coordinates":[[6.1597,48.0893],[6.1375,48.0888],[6.113,48.0915],[6.0855,48.0989],[6.0591,48.0981],[6.0373,48.0813],[6.0159,48.0604],[5.9906,48.0495],[5.9694,48.0443],[5.9492,48.0294],[5.9185,48.0148],[5.9021,47.9975],[5.8921,47.9785],[5.8904,47.9647],[5.9031,47.9538],[5.9535,47.9282],[5.97,47.9149],[5.9676,47.8987],[5.9299,47.8585],[5.9275,47.8434],[5.9397,47.8346],[5.9556,47.8301],[5.9771,47.82],[6.0027,47.7978],[6.0398,47.7522],[6.0444,47.734],[6.0436,47.7108],[6.0369,47.6881],[6.0271,47.6706],[6.0121,47.6623],[5.9772,47.6595],[5.9741,47.6478],[5.9733,47.6337],[5.9636,47.626],[5.9494,47.6277],[5.9375,47.6361],[5.9219,47.6391],[5.8731,47.6125],[5.8411,47.604],[5.8342,47.5974],[5.8206,47.5895],[5.7622,47.5763],[5.7442,47.5646],[5.7313,47.5517],[5.7139,47.5417],[5.6934,47.5364],[5.6731,47.5349],[5.6611,47.5287],[5.6609,47.5121],[5.6558,47.491],[5.6323,47.4739],[5.5557,47.4505],[5.53,47.4347],[5.508,47.4143],[5.495,47.3955],[5.4915,47.3784],[5.4919,47.362],[5.4852,47.3482],[5.4398,47.3247],[5.4224,47.3075],[5.4103,47.2922],[5.3933,47.2797],[5.4043,47.2575],[5.406,47.2434],[5.3973,47.2268],[5.3794,47.2078],[5.3648,47.187],[5.3635,47.166],[5.3587,47.146],[5.335,47.1278],[5.3026,47.1156],[5.2507,47.1045],[5.1829,47.0788],[5.1438,47.0717],[5.1292,47.061],[5.1239,47.0428],[5.1304,47.0212],[5.1318,46.9967],[5.1145,46.9709],[5.0876,46.9517],[5.054,46.9383],[5.0493,46.9202],[5.0391,46.9142],[5.0134,46.9043]]}},{"type":"Feature","properties":{"name":"Aveyron"},"geometry":{"type":"LineString","coordinates":[[3.1228,44.3078],[3.0951,44.3205],[3.0623,44.3271],[3.0148,44.3528],[2.9905,44.361],[2.9391,44.3642],[2.9153,44.3683],[2.8757,44.3945],[2.8459,44.4055],[2.813,44.4102],[2.7634,44.4086],[2.7366,44.4131],[2.7053,44.3994],[2.6807,44.3918],[2.6615,44.3706],[2.6245,44.3734],[2.5872,44.3637],[2.5469,44.3503],[2.5156,44.3429],[2.4934,44.3442],[2.4517,44.3629],[2.3572,44.3885],[2.3316,44.3918],[2.273,44.3825],[2.2307,44.3824],[2.169,44.3784],[2.098,44.3686],[2.0476,44.3546],[2.02,44.3359],[2.0046,44.3148],[2.0012,44.2952],[2.0026,44.2799],[2.0012,44.2649],[1.9812,44.2253],[1.9787,44.1718],[1.9678,44.1624],[1.9264,44.1642],[1.8992,44.1457],[1.8726,44.1452],[1.8454,44.1474],[1.8166,44.1438],[1.7979,44.1505],[1.773,44.1562],[1.7449,44.1527],[1.7253,44.1427],[1.7205,44.133],[1.7229,44.1201],[1.7205,44.1023],[1.7107,44.0866],[1.6951,44.0784],[1.6719,44.0776],[1.6437,44.0795],[1.617,44.0843],[1.5791,44.0943],[1.5283,44.0937],[1.4875,44.112],[1.4623,44.1066],[1.4507,44.1107],[1.4318,44.112],[1.4026,44.1012],[1.3679,44.0919],[1.3362,44.0964],[1.3093,44.1044],[1.2864,44.1034],[1.2551,44.0959]]}},{"type":"Feature","properties":{"name":"Eure"},"geometry":{"type":"LineString","coordinates":[[0.8284,48.5616],[0.8633,48.558],[0.9128,48.5456],[0.9727,48.5271],[1.041,48.5102],[1.0936,48.4988],[1.1426,48.4936],[1.166,48.4863],[1.1875,48.4753],[1.201,48.4646],[1.2179,48.4582],[1.2837,48.4552],[1.3176,48.4439],[1.3454,48.4306],[1.3865,48.4162],[1.4116,48.4036],[1.439,48.3948],[1.4646,48.3967],[1.4807,48.4069],[1.4851,48.4179],[1.4854,48.4286],[1.4949,48.4481],[1.4905,48.4604],[1.4912,48.4744],[1.507,48.489],[1.5335,48.5064],[1.5599,48.5277],[1.5784,48.5498],[1.5855,48.5695],[1.5806,48.5859],[1.5588,48.6158],[1.5498,48.6352],[1.532,48.6554],[1.4622,48.6879],[1.4375,48.7042],[1.4246,48.7228],[1.4095,48.7619],[1.3816,48.7846],[1.3638,48.8033],[1.362,48.8211],[1.3724,48.8308],[1.3952,48.8444],[1.4119,48.8515],[1.4356,48.859],[1.4442,48.8638],[1.4514,48.8708],[1.4541,48.8806],[1.4541,48.8884],[1.4453,48.9096],[1.4481,48.9173],[1.4414,48.9276],[1.4331,48.9363],[1.4006,48.9988],[1.3828,49.0159],[1.3689,49.0237],[1.3464,49.0486],[1.3108,49.0752],[1.2682,49.1012],[1.2152,49.1234],[1.2022,49.1314],[1.196,49.1435],[1.1873,49.1783],[1.1727,49.2046],[1.1736,49.2204],[1.1843,49.2385],[1.2017,49.2565],[1.2147,49.2736],[1.2149,49.2893],[1.2092,49.3084]]}},{"type":"Feature","properties":{"name":"Lot"},"geometry":{"type":"LineString","coordinates":[[3.3948,44.5012],[3.3425,44.4848],[3.325,44.485],[3.3071,44.4907],[3.2805,44.4956],[3.2512,44.4969],[3.2269,44.494],[3.2106,44.4841],[3.1892,44.4539],[3.1702,44.4463],[3.1419,44.4492],[3.0734,44.4731],[3.0425,44.4813],[3.0139,44.4822],[2.9846,44.4775],[2.9564,44.4781],[2.93,44.4914],[2.9045,44.5087],[2.8777,44.5189],[2.794,44.5241],[2.7185,44.5491],[2.6734,44.5591],[2.6509,44.5793],[2.5921,44.6228],[2.5623,44.6486],[2.5427,44.654],[2.5137,44.6547],[2.4647,44.6523],[2.4548,44.6616],[2.4224,44.6588],[2.3848,44.6589],[2.3735,44.6601],[2.3677,44.6603],[2.3613,44.6588],[2.3525,44.654],[2.3462,44.6519],[2.3314,44.6411],[2.2674,44.6259],[2.1799,44.5893],[2.1414,44.5814],[2.063,44.5866],[2.0444,44.5793],[2.0271,44.5696],[1.988,44.5556],[1.9282,44.5207],[1.8892,44.5056],[1.7946,44.476],[1.7222,44.4723],[1.6908,44.4733],[1.6233,44.4882],[1.6055,44.484],[1.5949,44.4785],[1.5593,44.485],[1.4998,44.4728],[1.48,44.4749],[1.4666,44.4788],[1.438,44.4773],[1.4059,44.4945],[1.3929,44.494],[1.3783,44.489],[1.3586,44.4866],[1.3384,44.489],[1.3117,44.4982],[1.3034,44.4909],[1.2891,44.4841],[1.1704,44.5088],[1.1162,44.5102],[1.0349,44.4921],[0.9798,44.499],[0.9483,44.4929],[0.9212,44.4786],[0.8921,44.4487],[0.8489,44.4298],[0.8311,44.4177],[0.8132,44.4088],[0.7903,44.4076],[0.7389,44.4103],[0.7191,44.4133],[0.6946,44.4315],[0.6546,44.4321],[0.6167,44.4479],[0.6006,44.4484],[0.5903,44.4406],[0.5867,44.4282],[0.5768,44.4141],[0.5513,44.4018],[0.5222,44.3959],[0.4944,44.3998],[0.4766,44.39],[0.4491,44.3879],[0.4147,44.3695],[0.3768,44.3583],[0.3367,44.3384],[0.3187,44.3363]]}},{"type":"Feature","properties":{"name":"Aude"},"geometry":{"type":"LineString","coordinates":[[2.0296,42.5779],[2.0508,42.5705],[2.0725,42.5699],[2.0952,42.579],[2.1138,42.5958],[2.1255,42.6139],[2.1291,42.6325],[2.1273,42.6645],[2.1369,42.6831],[2.136,42.7019],[2.1165,42.7071],[2.1082,42.7117],[2.1006,42.7185],[2.0934,42.7303],[2.0862,42.7381],[2.0879,42.758],[2.0982,42.7681],[2.1228,42.7772],[2.1541,42.7824],[2.1802,42.7829],[2.2012,42.787],[2.2205,42.8005],[2.2282,42.8181],[2.2214,42.8323],[2.2064,42.8461],[2.1943,42.863],[2.1882,42.8813],[2.187,42.8986],[2.1926,42.9142],[2.2024,42.9288],[2.217,42.9403],[2.2492,42.9577],[2.2586,42.9722],[2.2601,42.9879],[2.2513,43.0128],[2.2495,43.029],[2.2449,43.0449],[2.2235,43.0694],[2.2246,43.0857],[2.241,43.1037],[2.2923,43.1347],[2.2993,43.1482],[2.3023,43.1653],[2.3163,43.1885],[2.334,43.2072],[2.3563,43.2167],[2.3699,43.2283],[2.3936,43.2343],[2.4282,43.224],[2.4854,43.1986],[2.4987,43.1981],[2.5282,43.2072],[2.5591,43.2086],[2.5972,43.2146],[2.6328,43.2304],[2.6677,43.2495],[2.7038,43.2633],[2.7342,43.2659],[2.7556,43.258],[2.7738,43.2487],[2.8293,43.2497],[2.9075,43.2443],[2.9258,43.2473],[2.9368,43.2527],[2.9549,43.2558],[2.9772,43.255],[3.0256,43.2483],[3.1096,43.2536],[3.1533,43.2526],[3.1895,43.2461],[3.2168,43.2357],[3.2443,43.2194]]}},{"type":"Feature","properties":{"name":"Vilaine"},"geometry":{"type":"LineString","coordinates":[[-0.9917,48.2261],[-1.0055,48.2234],[-1.0243,48.2163],[-1.05,48.2028],[-1.0707,48.1872],[-1.0771,48.1752],[-1.0781,48.1666],[-1.0861,48.1593],[-1.1042,48.1544],[-1.1683,48.1457],[-1.2593,48.1208],[-1.2848,48.1195],[-1.3057,48.1216],[-1.3373,48.1185],[-1.3861,48.1174],[-1.5033,48.1331],[-1.548,48.134],[-1.5803,48.1413],[-1.6149,48.1269],[-1.6686,48.1179],[-1.7257,48.1031],[-1.7592,48.0793],[-1.7721,48.0524],[-1.7794,48.0305],[-1.7781,48.0153],[-1.7704,48.005],[-1.7599,47.9955],[-1.7518,47.9822],[-1.7509,47.9654],[-1.7644,47.931],[-1.7632,47.9101],[-1.7799,47.8951],[-1.7781,47.8738],[-1.782,47.8598],[-1.7959,47.8452],[-1.8181,47.8317],[-1.8369,47.8075],[-1.8424,47.767],[-1.8687,47.7253],[-1.8735,47.7009],[-1.9379,47.6847],[-1.9582,47.6758],[-1.9927,47.6765],[-2.0234,47.6728],[-2.0307,47.6712],[-2.0348,47.6695],[-2.0497,47.6612],[-2.081,47.6498],[-2.0885,47.6326],[-2.0864,47.6292],[-2.0837,47.6233],[-2.0848,47.6203],[-2.087,47.6162],[-2.0871,47.6125],[-2.0858,47.608],[-2.0873,47.6037],[-2.0908,47.5989],[-2.1136,47.5937],[-2.1493,47.5937],[-2.1885,47.5964],[-2.2172,47.5932],[-2.2795,47.5805],[-2.2956,47.5699],[-2.304,47.5571],[-2.3058,47.5385],[-2.3153,47.529],[-2.3334,47.5111],[-2.3639,47.5062]]}},{"type":"Feature","properties":{"name":"Cher"},"geometry":{"type":"LineString","coordinates":[[2.293,45.9248],[2.2887,45.9363],[2.2969,45.9543],[2.3142,45.977],[2.326,46.0073],[2.3211,46.0434],[2.3112,46.0785],[2.3115,46.1064],[2.322,46.1278],[2.3369,46.1472],[2.3573,46.1643],[2.381,46.1801],[2.4069,46.1906],[2.4548,46.1967],[2.4727,46.2008],[2.4997,46.2193],[2.5437,46.2558],[2.5822,46.2971],[2.5957,46.3269],[2.595,46.3533],[2.6033,46.4182],[2.6013,46.4651],[2.6089,46.4955],[2.6128,46.5355],[2.6135,46.5495],[2.6174,46.5519],[2.6185,46.5566],[2.6184,46.5613],[2.6174,46.5658],[2.6157,46.5699],[2.6121,46.5755],[2.6063,46.582],[2.5915,46.5945],[2.5855,46.6014],[2.5833,46.6081],[2.5847,46.6148],[2.5921,46.625],[2.5934,46.6287],[2.5915,46.634],[2.5796,46.6447],[2.5762,46.6506],[2.5768,46.6558],[2.5808,46.6597],[2.5696,46.6709],[2.5588,46.6835],[2.4985,46.7178],[2.487,46.7308],[2.4832,46.7382],[2.4553,46.7455],[2.4397,46.7526],[2.4263,46.7654],[2.402,46.7993],[2.3853,46.8098],[2.3651,46.8192],[2.3445,46.8332],[2.3252,46.8535],[2.3088,46.8786],[2.2991,46.9022],[2.2923,46.9291],[2.2694,46.9536],[2.2424,46.9999],[2.2119,47.0444],[2.1941,47.0883],[2.1756,47.1145],[2.1541,47.1677],[2.1399,47.1872],[2.0974,47.2152],[2.0692,47.2248],[2.0093,47.2278],[1.9845,47.2317],[1.9006,47.2688],[1.7826,47.2941],[1.7534,47.2948],[1.7244,47.2892],[1.6727,47.2727],[1.658,47.2746],[1.6384,47.2809],[1.6039,47.2847],[1.5645,47.284],[1.4969,47.2746],[1.447,47.2736],[1.3862,47.2854],[1.259,47.3367],[1.1916,47.3451],[1.0903,47.3366],[1.0526,47.3355],[0.8713,47.359],[0.8108,47.3766],[0.7813,47.3817],[0.6826,47.3822],[0.5894,47.3764],[0.5691,47.3716],[0.5391,47.3593],[0.4775,47.3525]]}},{"type":"Feature","properties":{"name":"Somme"},"geometry":{"type":"LineString","coordinates":[[3.4512,49.935],[3.4236,49.9238],[3.3931,49.914],[3.3584,49.9057],[3.3303,49.8952],[3.3006,49.8591],[3.2704,49.8379],[3.2389,49.819],[3.2064,49.7918],[3.1654,49.7687],[3.1554,49.7595],[3.1448,49.7551],[3.0674,49.7585],[3.0383,49.7619],[3.007,49.7727],[2.9811,49.79],[2.9651,49.8093],[2.9548,49.8251],[2.9325,49.8441],[2.9264,49.8618],[2.9265,49.8835],[2.9312,49.9031],[2.9299,49.9199],[2.9153,49.935],[2.8987,49.9467],[2.8924,49.9556],[2.8822,49.9602],[2.8272,49.963],[2.8108,49.9683],[2.7959,49.968],[2.744,49.9433],[2.717,49.9406],[2.7013,49.9267],[2.6804,49.9287],[2.6581,49.9127],[2.6465,49.9137],[2.6333,49.9181],[2.5959,49.9182],[2.5405,49.927],[2.5143,49.9184],[2.4688,49.9144],[2.4347,49.8983],[2.3953,49.8935],[2.3451,49.8974],[2.2988,49.9095],[2.2645,49.9223],[2.2249,49.932],[2.1619,49.958],[2.1208,49.9726],[2.0848,49.9877],[2.0359,50.0194],[1.9461,50.0477],[1.8987,50.0659],[1.8628,50.0839],[1.8067,50.1178],[1.6543,50.1866]]}},{"type":"Feature","properties":{"name":"Mayenne"},"geometry":{"type":"LineString","coordinates":[[-0.4648,48.3872],[-0.4378,48.3952],[-0.4081,48.4011],[-0.3747,48.4042],[-0.3481,48.4133],[-0.3345,48.4338],[-0.3341,48.4582],[-0.337,48.4689],[-0.3442,48.4929],[-0.3527,48.4919],[-0.4199,48.5041],[-0.4704,48.5071],[-0.4831,48.5063],[-0.4929,48.5046],[-0.501,48.5012],[-0.535,48.4763],[-0.5443,48.4716],[-0.5544,48.4683],[-0.5783,48.4645],[-0.584,48.4504],[-0.5852,48.4431],[-0.6042,48.4193],[-0.609,48.4062],[-0.6051,48.392],[-0.5942,48.3771],[-0.5936,48.3534],[-0.6144,48.3178],[-0.6398,48.284],[-0.6561,48.2563],[-0.6886,48.2379],[-0.7217,48.204],[-0.7362,48.1916],[-0.7458,48.1786],[-0.7549,48.1394],[-0.7799,48.1098],[-0.7797,48.101],[-0.7718,48.0884],[-0.7579,48.0456],[-0.7422,48.0195],[-0.7278,47.974],[-0.7146,47.945],[-0.7203,47.9252],[-0.7097,47.916],[-0.6982,47.9001],[-0.697,47.8443],[-0.6859,47.8168],[-0.675,47.7965],[-0.6738,47.7746],[-0.661,47.7644],[-0.655,47.7441],[-0.6705,47.7108],[-0.6912,47.6743],[-0.6976,47.6462],[-0.6907,47.6256],[-0.6796,47.6075],[-0.6612,47.5932],[-0.618,47.5722],[-0.6084,47.5517],[-0.579,47.5388],[-0.5608,47.5232],[-0.549,47.502]]}},{"type":"Feature","properties":{"name":"Sarthe"},"geometry":{"type":"LineString","coordinates":[[0.4945,48.6479],[0.4766,48.6432],[0.4583,48.6356],[0.4395,48.6242],[0.4277,48.6059],[0.4258,48.5578],[0.4146,48.5377],[0.3938,48.5248],[0.3464,48.5102],[0.3069,48.4856],[0.2942,48.4737],[0.2805,48.4741],[0.1926,48.4602],[0.1755,48.4515],[0.1653,48.4475],[0.1526,48.4455],[0.1428,48.4398],[0.1262,48.4375],[0.0985,48.4326],[0.0393,48.4318],[0.0025,48.4068],[-0.0599,48.3874],[-0.0774,48.3771],[-0.0808,48.3635],[-0.0779,48.3464],[-0.0638,48.3263],[-0.0403,48.3056],[-0.0152,48.291],[0.0162,48.2835],[0.0457,48.2681],[0.0754,48.2699],[0.0933,48.268],[0.1091,48.2601],[0.1198,48.2478],[0.1224,48.2338],[0.1153,48.2099],[0.1182,48.1964],[0.1323,48.1808],[0.1763,48.147],[0.1829,48.1306],[0.1846,48.1174],[0.1994,48.1],[0.1919,48.0819],[0.1987,48.0676],[0.1834,48.05],[0.1897,48.0205],[0.1697,47.9831],[0.1755,47.9438],[0.1665,47.933],[0.1488,47.9228],[0.1139,47.8911],[0.098,47.8831],[0.0856,47.8844],[0.0663,47.8974],[0.0375,47.8972],[0.0161,47.9101],[-0.0015,47.9144],[-0.0214,47.9117],[-0.0531,47.8921],[-0.0868,47.883],[-0.1094,47.8591],[-0.1304,47.8545],[-0.1896,47.849],[-0.2023,47.8642],[-0.236,47.8612],[-0.2613,47.8625],[-0.2887,47.8605],[-0.3143,47.8498],[-0.3389,47.8367],[-0.3636,47.829],[-0.3793,47.8191],[-0.3839,47.7812],[-0.3992,47.7702],[-0.4198,47.7618],[-0.4352,47.749],[-0.442,47.7329],[-0.442,47.7167],[-0.4457,47.7034],[-0.4611,47.6945],[-0.4811,47.6789],[-0.4956,47.6494],[-0.5012,47.6203],[-0.5005,47.5971],[-0.511,47.5836],[-0.5274,47.5556]]}},{"type":"Feature","properties":{"name":"Allier"},"geometry":{"type":"LineString","coordinates":[[3.8808,44.5831],[3.8975,44.5974],[3.9031,44.6182],[3.9016,44.6387],[3.9015,44.665],[3.892,44.6857],[3.8889,44.6917],[3.8817,44.6966],[3.8748,44.7031],[3.8716,44.7137],[3.8706,44.7473],[3.8682,44.7547],[3.8372,44.7639],[3.834,44.7652],[3.8325,44.7692],[3.8215,44.7874],[3.8169,44.7925],[3.7954,44.7916],[3.7891,44.7925],[3.7592,44.8151],[3.7512,44.8184],[3.748,44.8205],[3.747,44.8244],[3.7488,44.8361],[3.748,44.8403],[3.7395,44.8472],[3.7208,44.8561],[3.6999,44.8806],[3.6807,44.8955],[3.6658,44.9119],[3.6641,44.9325],[3.6697,44.9407],[3.685,44.9555],[3.6879,44.9658],[3.6813,44.9749],[3.6486,44.9851],[3.6343,44.9943]]}},{"type":"Feature","properties":{"name":"Allier"},"geometry":{"type":"LineString","coordinates":[[3.6343,44.9943],[3.6267,45.0211],[3.6213,45.0328],[3.6116,45.0433],[3.5988,45.0508],[3.5708,45.0608],[3.5579,45.0677],[3.5015,45.1079],[3.4709,45.142],[3.453,45.1455],[3.436,45.1546],[3.4228,45.1679],[3.4164,45.1838],[3.3952,45.3133],[3.3857,45.3325],[3.348,45.3862],[3.3314,45.4336],[3.3231,45.4451],[3.3122,45.4543],[3.2868,45.4678],[3.2692,45.4743],[3.2628,45.4797],[3.2693,45.4964],[3.275,45.5423],[3.2708,45.5582],[3.26,45.5707],[3.2341,45.5922],[3.2073,45.6231],[3.2014,45.6332],[3.1995,45.6442],[3.2012,45.6541],[3.2043,45.664],[3.2062,45.6752],[3.2053,45.6829],[3.2014,45.698],[3.2012,45.7058],[3.203,45.7127],[3.2083,45.7248],[3.2091,45.7323],[3.208,45.7358],[3.2062,45.7376],[3.2046,45.7399],[3.2052,45.7451],[3.2064,45.7479],[3.2084,45.7503],[3.2258,45.7662],[3.2692,45.7959],[3.2756,45.8026],[3.2793,45.8085],[3.2834,45.8244],[3.2864,45.8308],[3.2944,45.8445],[3.2961,45.8508],[3.3025,45.8641],[3.3308,45.8881],[3.3372,45.8989],[3.339,45.9051],[3.348,45.9248],[3.3599,45.9434],[3.3666,45.9444],[3.3787,45.9365],[3.3882,45.9506],[3.4293,45.9715],[3.447,45.9849],[3.457,46.0032],[3.4579,46.02],[3.4157,46.1304],[3.4103,46.1674],[3.4265,46.1971],[3.4214,46.2075],[3.4208,46.2172],[3.4211,46.2271],[3.4191,46.2381],[3.4146,46.2446],[3.4014,46.2577],[3.3986,46.2626],[3.3942,46.2741],[3.3645,46.3275],[3.3515,46.3382],[3.3332,46.3495],[3.3169,46.3625],[3.3098,46.3784],[3.3303,46.5363],[3.3266,46.5582],[3.3168,46.5722],[3.1794,46.6838],[3.0891,46.7299],[3.0468,46.7596],[3.0293,46.7936],[3.038,46.8193],[3.0553,46.8383],[3.0701,46.859],[3.0708,46.8892],[3.0676,46.8953],[3.059,46.9036],[3.0566,46.9091],[3.0565,46.9171],[3.0581,46.9219],[3.0605,46.9258],[3.0757,46.9716],[3.0782,46.985]]}}]}